<?xml version="1.0"?>
<gpx xmlns="http://www.topografix.com/GPX/1/1" xmlns:xsi="http://www.w3.org/2001/XMLSchema-instance" version="1.1" creator="AllTrails.com" xsi:schemaLocation="http://www.topografix.com/GPX/1/1 http://www.topografix.com/GPX/1/1/gpx.xsd">
  <metadata>
    <name><![CDATA[Xyliatos Dam Loop]]></name>
    <desc><![CDATA[]]></desc>
    <link href="http://www.alltrails.com">
      <text>AllTrails, LLC</text>
    </link>
    <bounds minlat="35.00242" minlon="33.0322" maxlat="35.02153" maxlon="33.03901"/>
  </metadata>
  <trk>
    <name><![CDATA[Xyliatos Dam Loop]]></name>
    <src>AllTrails</src>
    <trkseg>
      <trkpt lat="35.01205" lon="33.03703">
        <ele>495.43</ele>
      </trkpt>
      <trkpt lat="35.01217" lon="33.03703">
        <ele>495.83</ele>
      </trkpt>
      <trkpt lat="35.01226" lon="33.03701">
        <ele>496.3</ele>
      </trkpt>
      <trkpt lat="35.01229" lon="33.03699">
        <ele>496.53</ele>
      </trkpt>
      <trkpt lat="35.01232" lon="33.03694">
        <ele>496.78</ele>
      </trkpt>
      <trkpt lat="35.01235" lon="33.0369">
        <ele>497.6</ele>
      </trkpt>
      <trkpt lat="35.01238" lon="33.03685">
        <ele>498.36</ele>
      </trkpt>
      <trkpt lat="35.01241" lon="33.03681">
        <ele>498.78</ele>
      </trkpt>
      <trkpt lat="35.01245" lon="33.03677">
        <ele>498.95</ele>
      </trkpt>
      <trkpt lat="35.01249" lon="33.03675">
        <ele>498.78</ele>
      </trkpt>
      <trkpt lat="35.01265" lon="33.03668">
        <ele>498.46</ele>
      </trkpt>
      <trkpt lat="35.01275" lon="33.03663">
        <ele>499.72</ele>
      </trkpt>
      <trkpt lat="35.01279" lon="33.03661">
        <ele>500.62</ele>
      </trkpt>
      <trkpt lat="35.01283" lon="33.03659">
        <ele>501.99</ele>
      </trkpt>
      <trkpt lat="35.01284" lon="33.03659">
        <ele>502.12</ele>
      </trkpt>
      <trkpt lat="35.01288" lon="33.03658">
        <ele>503.01</ele>
      </trkpt>
      <trkpt lat="35.01295" lon="33.03657">
        <ele>504.2</ele>
      </trkpt>
      <trkpt lat="35.01303" lon="33.03656">
        <ele>505.4</ele>
      </trkpt>
      <trkpt lat="35.01308" lon="33.03659">
        <ele>505.17</ele>
      </trkpt>
      <trkpt lat="35.01312" lon="33.03659">
        <ele>505.56</ele>
      </trkpt>
      <trkpt lat="35.01316" lon="33.03661">
        <ele>505.48</ele>
      </trkpt>
      <trkpt lat="35.01321" lon="33.03663">
        <ele>505.52</ele>
      </trkpt>
      <trkpt lat="35.01325" lon="33.03666">
        <ele>505.25</ele>
      </trkpt>
      <trkpt lat="35.01326" lon="33.03667">
        <ele>505.15</ele>
      </trkpt>
      <trkpt lat="35.01335" lon="33.03672">
        <ele>505.29</ele>
      </trkpt>
      <trkpt lat="35.0134" lon="33.03677">
        <ele>505.42</ele>
      </trkpt>
      <trkpt lat="35.01342" lon="33.03687">
        <ele>503.42</ele>
      </trkpt>
      <trkpt lat="35.01345" lon="33.03694">
        <ele>502.22</ele>
      </trkpt>
      <trkpt lat="35.01348" lon="33.037">
        <ele>502.42</ele>
      </trkpt>
      <trkpt lat="35.01351" lon="33.03704">
        <ele>502.65</ele>
      </trkpt>
      <trkpt lat="35.01353" lon="33.03707">
        <ele>502.71</ele>
      </trkpt>
      <trkpt lat="35.01354" lon="33.03707">
        <ele>502.83</ele>
      </trkpt>
      <trkpt lat="35.01355" lon="33.03708">
        <ele>502.87</ele>
      </trkpt>
      <trkpt lat="35.01356" lon="33.03708">
        <ele>502.98</ele>
      </trkpt>
      <trkpt lat="35.01357" lon="33.03709">
        <ele>503.0</ele>
      </trkpt>
      <trkpt lat="35.01358" lon="33.0371">
        <ele>503.01</ele>
      </trkpt>
      <trkpt lat="35.0137" lon="33.03718">
        <ele>503.85</ele>
      </trkpt>
      <trkpt lat="35.01392" lon="33.03734">
        <ele>502.2</ele>
      </trkpt>
      <trkpt lat="35.01421" lon="33.03746">
        <ele>497.83</ele>
      </trkpt>
      <trkpt lat="35.01429" lon="33.03749">
        <ele>496.1</ele>
      </trkpt>
      <trkpt lat="35.01433" lon="33.03751">
        <ele>495.23</ele>
      </trkpt>
      <trkpt lat="35.01435" lon="33.03753">
        <ele>494.77</ele>
      </trkpt>
      <trkpt lat="35.01438" lon="33.03754">
        <ele>494.39</ele>
      </trkpt>
      <trkpt lat="35.01447" lon="33.03757">
        <ele>492.94</ele>
      </trkpt>
      <trkpt lat="35.01461" lon="33.03761">
        <ele>490.2</ele>
      </trkpt>
      <trkpt lat="35.01479" lon="33.03763">
        <ele>487.23</ele>
      </trkpt>
      <trkpt lat="35.01495" lon="33.03767">
        <ele>484.38</ele>
      </trkpt>
      <trkpt lat="35.01498" lon="33.03766">
        <ele>484.1</ele>
      </trkpt>
      <trkpt lat="35.01503" lon="33.03767">
        <ele>483.65</ele>
      </trkpt>
      <trkpt lat="35.01506" lon="33.03766">
        <ele>483.57</ele>
      </trkpt>
      <trkpt lat="35.0151" lon="33.03764">
        <ele>483.46</ele>
      </trkpt>
      <trkpt lat="35.01514" lon="33.0376">
        <ele>483.31</ele>
      </trkpt>
      <trkpt lat="35.01519" lon="33.03757">
        <ele>482.96</ele>
      </trkpt>
      <trkpt lat="35.01522" lon="33.03754">
        <ele>482.68</ele>
      </trkpt>
      <trkpt lat="35.01524" lon="33.03752">
        <ele>482.45</ele>
      </trkpt>
      <trkpt lat="35.01526" lon="33.03751">
        <ele>482.22</ele>
      </trkpt>
      <trkpt lat="35.01531" lon="33.03748">
        <ele>481.96</ele>
      </trkpt>
      <trkpt lat="35.0155" lon="33.03738">
        <ele>481.43</ele>
      </trkpt>
      <trkpt lat="35.01586" lon="33.03715">
        <ele>480.7</ele>
      </trkpt>
      <trkpt lat="35.01594" lon="33.0371">
        <ele>482.29</ele>
      </trkpt>
      <trkpt lat="35.01599" lon="33.03707">
        <ele>483.26</ele>
      </trkpt>
      <trkpt lat="35.01603" lon="33.03705">
        <ele>483.82</ele>
      </trkpt>
      <trkpt lat="35.01609" lon="33.03701">
        <ele>485.31</ele>
      </trkpt>
      <trkpt lat="35.01617" lon="33.03695">
        <ele>485.74</ele>
      </trkpt>
      <trkpt lat="35.01622" lon="33.03692">
        <ele>485.02</ele>
      </trkpt>
      <trkpt lat="35.01627" lon="33.03691">
        <ele>483.3</ele>
      </trkpt>
      <trkpt lat="35.01632" lon="33.03691">
        <ele>480.95</ele>
      </trkpt>
      <trkpt lat="35.01641" lon="33.03692">
        <ele>476.92</ele>
      </trkpt>
      <trkpt lat="35.01654" lon="33.03695">
        <ele>474.83</ele>
      </trkpt>
      <trkpt lat="35.01664" lon="33.03696">
        <ele>474.41</ele>
      </trkpt>
      <trkpt lat="35.01674" lon="33.03694">
        <ele>474.23</ele>
      </trkpt>
      <trkpt lat="35.01682" lon="33.03692">
        <ele>474.27</ele>
      </trkpt>
      <trkpt lat="35.01687" lon="33.03691">
        <ele>474.06</ele>
      </trkpt>
      <trkpt lat="35.01694" lon="33.0369">
        <ele>473.47</ele>
      </trkpt>
      <trkpt lat="35.017" lon="33.03688">
        <ele>473.68</ele>
      </trkpt>
      <trkpt lat="35.01706" lon="33.03686">
        <ele>473.9</ele>
      </trkpt>
      <trkpt lat="35.01715" lon="33.03684">
        <ele>473.68</ele>
      </trkpt>
      <trkpt lat="35.01729" lon="33.03678">
        <ele>474.72</ele>
      </trkpt>
      <trkpt lat="35.01733" lon="33.03678">
        <ele>474.04</ele>
      </trkpt>
      <trkpt lat="35.01746" lon="33.03673">
        <ele>473.29</ele>
      </trkpt>
      <trkpt lat="35.01759" lon="33.03667">
        <ele>472.28</ele>
      </trkpt>
      <trkpt lat="35.01768" lon="33.03662">
        <ele>475.15</ele>
      </trkpt>
      <trkpt lat="35.01775" lon="33.03658">
        <ele>477.18</ele>
      </trkpt>
      <trkpt lat="35.0178" lon="33.03654">
        <ele>478.82</ele>
      </trkpt>
      <trkpt lat="35.01785" lon="33.03649">
        <ele>480.18</ele>
      </trkpt>
      <trkpt lat="35.01791" lon="33.03645">
        <ele>479.62</ele>
      </trkpt>
      <trkpt lat="35.01793" lon="33.03644">
        <ele>479.08</ele>
      </trkpt>
      <trkpt lat="35.01797" lon="33.03642">
        <ele>477.86</ele>
      </trkpt>
      <trkpt lat="35.01807" lon="33.0364">
        <ele>473.35</ele>
      </trkpt>
      <trkpt lat="35.01812" lon="33.03641">
        <ele>472.66</ele>
      </trkpt>
      <trkpt lat="35.01815" lon="33.03642">
        <ele>472.06</ele>
      </trkpt>
      <trkpt lat="35.0182" lon="33.03642">
        <ele>471.92</ele>
      </trkpt>
      <trkpt lat="35.01821" lon="33.03643">
        <ele>471.39</ele>
      </trkpt>
      <trkpt lat="35.01825" lon="33.03643">
        <ele>471.29</ele>
      </trkpt>
      <trkpt lat="35.01827" lon="33.03644">
        <ele>470.75</ele>
      </trkpt>
      <trkpt lat="35.01838" lon="33.03644">
        <ele>470.7</ele>
      </trkpt>
      <trkpt lat="35.01842" lon="33.03643">
        <ele>471.21</ele>
      </trkpt>
      <trkpt lat="35.01848" lon="33.03642">
        <ele>471.72</ele>
      </trkpt>
      <trkpt lat="35.01854" lon="33.0364">
        <ele>472.57</ele>
      </trkpt>
      <trkpt lat="35.01859" lon="33.03638">
        <ele>473.6</ele>
      </trkpt>
      <trkpt lat="35.01862" lon="33.03637">
        <ele>474.3</ele>
      </trkpt>
      <trkpt lat="35.01865" lon="33.03636">
        <ele>475.18</ele>
      </trkpt>
      <trkpt lat="35.01874" lon="33.03631">
        <ele>478.45</ele>
      </trkpt>
      <trkpt lat="35.01879" lon="33.03629">
        <ele>479.51</ele>
      </trkpt>
      <trkpt lat="35.01889" lon="33.03622">
        <ele>482.1</ele>
      </trkpt>
      <trkpt lat="35.01895" lon="33.03616">
        <ele>484.87</ele>
      </trkpt>
      <trkpt lat="35.01904" lon="33.0361">
        <ele>487.52</ele>
      </trkpt>
      <trkpt lat="35.0191" lon="33.03607">
        <ele>488.99</ele>
      </trkpt>
      <trkpt lat="35.01917" lon="33.03604">
        <ele>490.4</ele>
      </trkpt>
      <trkpt lat="35.01924" lon="33.036">
        <ele>493.55</ele>
      </trkpt>
      <trkpt lat="35.01926" lon="33.03596">
        <ele>495.19</ele>
      </trkpt>
      <trkpt lat="35.01928" lon="33.0359">
        <ele>497.27</ele>
      </trkpt>
      <trkpt lat="35.0193" lon="33.03585">
        <ele>498.98</ele>
      </trkpt>
      <trkpt lat="35.01931" lon="33.03582">
        <ele>500.01</ele>
      </trkpt>
      <trkpt lat="35.01931" lon="33.0358">
        <ele>500.65</ele>
      </trkpt>
      <trkpt lat="35.01932" lon="33.03578">
        <ele>501.43</ele>
      </trkpt>
      <trkpt lat="35.01934" lon="33.03575">
        <ele>502.6</ele>
      </trkpt>
      <trkpt lat="35.01936" lon="33.03572">
        <ele>503.67</ele>
      </trkpt>
      <trkpt lat="35.01943" lon="33.03567">
        <ele>505.45</ele>
      </trkpt>
      <trkpt lat="35.01945" lon="33.03566">
        <ele>505.82</ele>
      </trkpt>
      <trkpt lat="35.01954" lon="33.03565">
        <ele>507.23</ele>
      </trkpt>
      <trkpt lat="35.01958" lon="33.03562">
        <ele>508.15</ele>
      </trkpt>
      <trkpt lat="35.01961" lon="33.0356">
        <ele>508.71</ele>
      </trkpt>
      <trkpt lat="35.01965" lon="33.03555">
        <ele>509.57</ele>
      </trkpt>
      <trkpt lat="35.01967" lon="33.03552">
        <ele>510.18</ele>
      </trkpt>
      <trkpt lat="35.01967" lon="33.03545">
        <ele>511.29</ele>
      </trkpt>
      <trkpt lat="35.01966" lon="33.03541">
        <ele>511.88</ele>
      </trkpt>
      <trkpt lat="35.01954" lon="33.03514">
        <ele>514.82</ele>
      </trkpt>
      <trkpt lat="35.01953" lon="33.03508">
        <ele>515.2</ele>
      </trkpt>
      <trkpt lat="35.01951" lon="33.03503">
        <ele>515.57</ele>
      </trkpt>
      <trkpt lat="35.0195" lon="33.03498">
        <ele>516.13</ele>
      </trkpt>
      <trkpt lat="35.0195" lon="33.03491">
        <ele>517.29</ele>
      </trkpt>
      <trkpt lat="35.01949" lon="33.03482">
        <ele>518.75</ele>
      </trkpt>
      <trkpt lat="35.01948" lon="33.03476">
        <ele>519.66</ele>
      </trkpt>
      <trkpt lat="35.01946" lon="33.03468">
        <ele>520.91</ele>
      </trkpt>
      <trkpt lat="35.01944" lon="33.03462">
        <ele>521.91</ele>
      </trkpt>
      <trkpt lat="35.01942" lon="33.03453">
        <ele>523.91</ele>
      </trkpt>
      <trkpt lat="35.01943" lon="33.03448">
        <ele>524.65</ele>
      </trkpt>
      <trkpt lat="35.01945" lon="33.03444">
        <ele>525.42</ele>
      </trkpt>
      <trkpt lat="35.0195" lon="33.0344">
        <ele>529.05</ele>
      </trkpt>
      <trkpt lat="35.01953" lon="33.03439">
        <ele>530.21</ele>
      </trkpt>
      <trkpt lat="35.01956" lon="33.03439">
        <ele>530.73</ele>
      </trkpt>
      <trkpt lat="35.0196" lon="33.03441">
        <ele>530.3</ele>
      </trkpt>
      <trkpt lat="35.01968" lon="33.03449">
        <ele>528.71</ele>
      </trkpt>
      <trkpt lat="35.01974" lon="33.03455">
        <ele>528.0</ele>
      </trkpt>
      <trkpt lat="35.01979" lon="33.0346">
        <ele>527.17</ele>
      </trkpt>
      <trkpt lat="35.0198" lon="33.03461">
        <ele>526.93</ele>
      </trkpt>
      <trkpt lat="35.01982" lon="33.03463">
        <ele>526.39</ele>
      </trkpt>
      <trkpt lat="35.01986" lon="33.03464">
        <ele>526.48</ele>
      </trkpt>
      <trkpt lat="35.0199" lon="33.03466">
        <ele>525.95</ele>
      </trkpt>
      <trkpt lat="35.01994" lon="33.03465">
        <ele>526.96</ele>
      </trkpt>
      <trkpt lat="35.02003" lon="33.03461">
        <ele>530.79</ele>
      </trkpt>
      <trkpt lat="35.02009" lon="33.03462">
        <ele>531.26</ele>
      </trkpt>
      <trkpt lat="35.02015" lon="33.03466">
        <ele>530.38</ele>
      </trkpt>
      <trkpt lat="35.02017" lon="33.03469">
        <ele>529.42</ele>
      </trkpt>
      <trkpt lat="35.02023" lon="33.03479">
        <ele>526.22</ele>
      </trkpt>
      <trkpt lat="35.02027" lon="33.03484">
        <ele>524.49</ele>
      </trkpt>
      <trkpt lat="35.02031" lon="33.03486">
        <ele>522.92</ele>
      </trkpt>
      <trkpt lat="35.02038" lon="33.0349">
        <ele>519.53</ele>
      </trkpt>
      <trkpt lat="35.02041" lon="33.03491">
        <ele>518.49</ele>
      </trkpt>
      <trkpt lat="35.02045" lon="33.03492">
        <ele>517.3</ele>
      </trkpt>
      <trkpt lat="35.02051" lon="33.03491">
        <ele>516.7</ele>
      </trkpt>
      <trkpt lat="35.02055" lon="33.03491">
        <ele>515.99</ele>
      </trkpt>
      <trkpt lat="35.02057" lon="33.03491">
        <ele>515.46</ele>
      </trkpt>
      <trkpt lat="35.02058" lon="33.03491">
        <ele>515.16</ele>
      </trkpt>
      <trkpt lat="35.02067" lon="33.03491">
        <ele>512.48</ele>
      </trkpt>
      <trkpt lat="35.02078" lon="33.0349">
        <ele>509.44</ele>
      </trkpt>
      <trkpt lat="35.02091" lon="33.03489">
        <ele>507.48</ele>
      </trkpt>
      <trkpt lat="35.02095" lon="33.03487">
        <ele>507.67</ele>
      </trkpt>
      <trkpt lat="35.02097" lon="33.03484">
        <ele>508.25</ele>
      </trkpt>
      <trkpt lat="35.021" lon="33.03479">
        <ele>509.34</ele>
      </trkpt>
      <trkpt lat="35.02102" lon="33.03474">
        <ele>510.55</ele>
      </trkpt>
      <trkpt lat="35.02104" lon="33.03465">
        <ele>513.35</ele>
      </trkpt>
      <trkpt lat="35.02104" lon="33.03458">
        <ele>515.63</ele>
      </trkpt>
      <trkpt lat="35.02103" lon="33.0345">
        <ele>518.47</ele>
      </trkpt>
      <trkpt lat="35.02104" lon="33.03443">
        <ele>520.55</ele>
      </trkpt>
      <trkpt lat="35.02105" lon="33.03435">
        <ele>523.09</ele>
      </trkpt>
      <trkpt lat="35.02106" lon="33.03429">
        <ele>524.93</ele>
      </trkpt>
      <trkpt lat="35.02107" lon="33.03425">
        <ele>526.08</ele>
      </trkpt>
      <trkpt lat="35.02107" lon="33.03422">
        <ele>527.14</ele>
      </trkpt>
      <trkpt lat="35.02107" lon="33.03419">
        <ele>528.21</ele>
      </trkpt>
      <trkpt lat="35.02108" lon="33.03413">
        <ele>529.81</ele>
      </trkpt>
      <trkpt lat="35.02107" lon="33.03407">
        <ele>531.72</ele>
      </trkpt>
      <trkpt lat="35.02103" lon="33.03391">
        <ele>536.9</ele>
      </trkpt>
      <trkpt lat="35.02102" lon="33.03384">
        <ele>538.29</ele>
      </trkpt>
      <trkpt lat="35.02103" lon="33.03379">
        <ele>538.78</ele>
      </trkpt>
      <trkpt lat="35.02105" lon="33.03373">
        <ele>539.26</ele>
      </trkpt>
      <trkpt lat="35.02106" lon="33.03371">
        <ele>539.38</ele>
      </trkpt>
      <trkpt lat="35.02117" lon="33.03362">
        <ele>539.85</ele>
      </trkpt>
      <trkpt lat="35.02122" lon="33.03356">
        <ele>540.62</ele>
      </trkpt>
      <trkpt lat="35.02124" lon="33.03354">
        <ele>540.89</ele>
      </trkpt>
      <trkpt lat="35.02125" lon="33.03348">
        <ele>541.65</ele>
      </trkpt>
      <trkpt lat="35.02124" lon="33.0334">
        <ele>542.63</ele>
      </trkpt>
      <trkpt lat="35.02122" lon="33.03333">
        <ele>543.39</ele>
      </trkpt>
      <trkpt lat="35.0212" lon="33.03328">
        <ele>543.32</ele>
      </trkpt>
      <trkpt lat="35.0212" lon="33.03325">
        <ele>543.32</ele>
      </trkpt>
      <trkpt lat="35.02118" lon="33.03321">
        <ele>543.25</ele>
      </trkpt>
      <trkpt lat="35.02118" lon="33.03317">
        <ele>543.25</ele>
      </trkpt>
      <trkpt lat="35.02115" lon="33.03308">
        <ele>543.14</ele>
      </trkpt>
      <trkpt lat="35.02113" lon="33.033">
        <ele>543.48</ele>
      </trkpt>
      <trkpt lat="35.02113" lon="33.03291">
        <ele>544.15</ele>
      </trkpt>
      <trkpt lat="35.02115" lon="33.03287">
        <ele>544.57</ele>
      </trkpt>
      <trkpt lat="35.02121" lon="33.03282">
        <ele>545.35</ele>
      </trkpt>
      <trkpt lat="35.02127" lon="33.03281">
        <ele>545.85</ele>
      </trkpt>
      <trkpt lat="35.02134" lon="33.03281">
        <ele>546.32</ele>
      </trkpt>
      <trkpt lat="35.02141" lon="33.03283">
        <ele>546.8</ele>
      </trkpt>
      <trkpt lat="35.02148" lon="33.03284">
        <ele>547.89</ele>
      </trkpt>
      <trkpt lat="35.02152" lon="33.03281">
        <ele>548.96</ele>
      </trkpt>
      <trkpt lat="35.02153" lon="33.03278">
        <ele>549.51</ele>
      </trkpt>
      <trkpt lat="35.02152" lon="33.03274">
        <ele>550.05</ele>
      </trkpt>
      <trkpt lat="35.02148" lon="33.03271">
        <ele>549.94</ele>
      </trkpt>
      <trkpt lat="35.02146" lon="33.03269">
        <ele>550.01</ele>
      </trkpt>
      <trkpt lat="35.02144" lon="33.03268">
        <ele>549.9</ele>
      </trkpt>
      <trkpt lat="35.0214" lon="33.03265">
        <ele>549.92</ele>
      </trkpt>
      <trkpt lat="35.02134" lon="33.03262">
        <ele>550.06</ele>
      </trkpt>
      <trkpt lat="35.02126" lon="33.03258">
        <ele>550.34</ele>
      </trkpt>
      <trkpt lat="35.02109" lon="33.03246">
        <ele>552.21</ele>
      </trkpt>
      <trkpt lat="35.02101" lon="33.03239">
        <ele>554.24</ele>
      </trkpt>
      <trkpt lat="35.02094" lon="33.0323">
        <ele>556.49</ele>
      </trkpt>
      <trkpt lat="35.02089" lon="33.03225">
        <ele>557.56</ele>
      </trkpt>
      <trkpt lat="35.02085" lon="33.03222">
        <ele>558.14</ele>
      </trkpt>
      <trkpt lat="35.02082" lon="33.0322">
        <ele>558.9</ele>
      </trkpt>
      <trkpt lat="35.02077" lon="33.0322">
        <ele>559.29</ele>
      </trkpt>
      <trkpt lat="35.02075" lon="33.03222">
        <ele>558.68</ele>
      </trkpt>
      <trkpt lat="35.0207" lon="33.0323">
        <ele>557.28</ele>
      </trkpt>
      <trkpt lat="35.02067" lon="33.03236">
        <ele>556.2</ele>
      </trkpt>
      <trkpt lat="35.02066" lon="33.03238">
        <ele>555.84</ele>
      </trkpt>
      <trkpt lat="35.02063" lon="33.03239">
        <ele>555.84</ele>
      </trkpt>
      <trkpt lat="35.02059" lon="33.0324">
        <ele>555.91</ele>
      </trkpt>
      <trkpt lat="35.02055" lon="33.03239">
        <ele>556.53</ele>
      </trkpt>
      <trkpt lat="35.02053" lon="33.03237">
        <ele>557.53</ele>
      </trkpt>
      <trkpt lat="35.02047" lon="33.03236">
        <ele>559.49</ele>
      </trkpt>
      <trkpt lat="35.02045" lon="33.03236">
        <ele>560.07</ele>
      </trkpt>
      <trkpt lat="35.02042" lon="33.03238">
        <ele>560.36</ele>
      </trkpt>
      <trkpt lat="35.0204" lon="33.0324">
        <ele>560.33</ele>
      </trkpt>
      <trkpt lat="35.02039" lon="33.03243">
        <ele>559.69</ele>
      </trkpt>
      <trkpt lat="35.02038" lon="33.03247">
        <ele>558.71</ele>
      </trkpt>
      <trkpt lat="35.02038" lon="33.0325">
        <ele>557.79</ele>
      </trkpt>
      <trkpt lat="35.02039" lon="33.03256">
        <ele>556.93</ele>
      </trkpt>
      <trkpt lat="35.0204" lon="33.03264">
        <ele>555.85</ele>
      </trkpt>
      <trkpt lat="35.02041" lon="33.03275">
        <ele>554.44</ele>
      </trkpt>
      <trkpt lat="35.0204" lon="33.03279">
        <ele>554.45</ele>
      </trkpt>
      <trkpt lat="35.02037" lon="33.03283">
        <ele>555.45</ele>
      </trkpt>
      <trkpt lat="35.02033" lon="33.03286">
        <ele>556.65</ele>
      </trkpt>
      <trkpt lat="35.02026" lon="33.0329">
        <ele>558.65</ele>
      </trkpt>
      <trkpt lat="35.02021" lon="33.03292">
        <ele>559.75</ele>
      </trkpt>
      <trkpt lat="35.02018" lon="33.03295">
        <ele>560.54</ele>
      </trkpt>
      <trkpt lat="35.02014" lon="33.03302">
        <ele>561.73</ele>
      </trkpt>
      <trkpt lat="35.02008" lon="33.03314">
        <ele>563.46</ele>
      </trkpt>
      <trkpt lat="35.02004" lon="33.03319">
        <ele>564.39</ele>
      </trkpt>
      <trkpt lat="35.02" lon="33.0332">
        <ele>565.04</ele>
      </trkpt>
      <trkpt lat="35.01996" lon="33.03318">
        <ele>564.86</ele>
      </trkpt>
      <trkpt lat="35.0199" lon="33.03312">
        <ele>564.77</ele>
      </trkpt>
      <trkpt lat="35.01982" lon="33.03306">
        <ele>565.28</ele>
      </trkpt>
      <trkpt lat="35.01973" lon="33.03302">
        <ele>566.44</ele>
      </trkpt>
      <trkpt lat="35.01963" lon="33.03294">
        <ele>568.22</ele>
      </trkpt>
      <trkpt lat="35.01954" lon="33.03288">
        <ele>570.19</ele>
      </trkpt>
      <trkpt lat="35.01948" lon="33.03284">
        <ele>571.81</ele>
      </trkpt>
      <trkpt lat="35.01944" lon="33.03283">
        <ele>572.53</ele>
      </trkpt>
      <trkpt lat="35.01941" lon="33.03283">
        <ele>572.74</ele>
      </trkpt>
      <trkpt lat="35.01938" lon="33.03283">
        <ele>572.96</ele>
      </trkpt>
      <trkpt lat="35.01932" lon="33.03285">
        <ele>572.82</ele>
      </trkpt>
      <trkpt lat="35.01925" lon="33.03285">
        <ele>573.32</ele>
      </trkpt>
      <trkpt lat="35.01918" lon="33.03283">
        <ele>574.4</ele>
      </trkpt>
      <trkpt lat="35.01905" lon="33.03277">
        <ele>575.46</ele>
      </trkpt>
      <trkpt lat="35.01896" lon="33.03274">
        <ele>576.07</ele>
      </trkpt>
      <trkpt lat="35.01883" lon="33.03269">
        <ele>576.87</ele>
      </trkpt>
      <trkpt lat="35.01873" lon="33.03261">
        <ele>579.08</ele>
      </trkpt>
      <trkpt lat="35.01866" lon="33.03256">
        <ele>580.58</ele>
      </trkpt>
      <trkpt lat="35.01863" lon="33.03253">
        <ele>581.71</ele>
      </trkpt>
      <trkpt lat="35.01858" lon="33.0325">
        <ele>582.66</ele>
      </trkpt>
      <trkpt lat="35.0185" lon="33.03246">
        <ele>583.41</ele>
      </trkpt>
      <trkpt lat="35.01838" lon="33.03238">
        <ele>584.97</ele>
      </trkpt>
      <trkpt lat="35.01828" lon="33.03233">
        <ele>586.3</ele>
      </trkpt>
      <trkpt lat="35.0182" lon="33.03228">
        <ele>587.94</ele>
      </trkpt>
      <trkpt lat="35.01812" lon="33.03225">
        <ele>588.62</ele>
      </trkpt>
      <trkpt lat="35.01801" lon="33.03221">
        <ele>591.15</ele>
      </trkpt>
      <trkpt lat="35.01793" lon="33.03222">
        <ele>594.03</ele>
      </trkpt>
      <trkpt lat="35.01787" lon="33.03224">
        <ele>595.81</ele>
      </trkpt>
      <trkpt lat="35.01782" lon="33.03226">
        <ele>597.07</ele>
      </trkpt>
      <trkpt lat="35.01778" lon="33.0323">
        <ele>597.12</ele>
      </trkpt>
      <trkpt lat="35.01776" lon="33.03234">
        <ele>596.16</ele>
      </trkpt>
      <trkpt lat="35.01774" lon="33.03238">
        <ele>595.23</ele>
      </trkpt>
      <trkpt lat="35.01777" lon="33.03246">
        <ele>591.65</ele>
      </trkpt>
      <trkpt lat="35.01787" lon="33.03262">
        <ele>586.71</ele>
      </trkpt>
      <trkpt lat="35.0179" lon="33.03274">
        <ele>585.04</ele>
      </trkpt>
      <trkpt lat="35.0179" lon="33.03278">
        <ele>584.65</ele>
      </trkpt>
      <trkpt lat="35.01788" lon="33.03285">
        <ele>583.92</ele>
      </trkpt>
      <trkpt lat="35.01787" lon="33.03288">
        <ele>583.66</ele>
      </trkpt>
      <trkpt lat="35.01777" lon="33.03308">
        <ele>583.13</ele>
      </trkpt>
      <trkpt lat="35.01773" lon="33.03313">
        <ele>584.31</ele>
      </trkpt>
      <trkpt lat="35.01769" lon="33.03317">
        <ele>585.52</ele>
      </trkpt>
      <trkpt lat="35.01765" lon="33.0332">
        <ele>586.78</ele>
      </trkpt>
      <trkpt lat="35.01761" lon="33.03323">
        <ele>588.01</ele>
      </trkpt>
      <trkpt lat="35.01756" lon="33.03327">
        <ele>589.47</ele>
      </trkpt>
      <trkpt lat="35.01752" lon="33.03335">
        <ele>590.16</ele>
      </trkpt>
      <trkpt lat="35.0175" lon="33.03343">
        <ele>590.3</ele>
      </trkpt>
      <trkpt lat="35.01748" lon="33.03349">
        <ele>590.8</ele>
      </trkpt>
      <trkpt lat="35.01744" lon="33.03354">
        <ele>592.21</ele>
      </trkpt>
      <trkpt lat="35.01739" lon="33.03359">
        <ele>593.96</ele>
      </trkpt>
      <trkpt lat="35.01736" lon="33.0336">
        <ele>595.17</ele>
      </trkpt>
      <trkpt lat="35.01731" lon="33.0336">
        <ele>597.34</ele>
      </trkpt>
      <trkpt lat="35.01725" lon="33.03359">
        <ele>600.09</ele>
      </trkpt>
      <trkpt lat="35.01723" lon="33.03358">
        <ele>601.11</ele>
      </trkpt>
      <trkpt lat="35.01704" lon="33.03357">
        <ele>606.48</ele>
      </trkpt>
      <trkpt lat="35.017" lon="33.03356">
        <ele>607.78</ele>
      </trkpt>
      <trkpt lat="35.01697" lon="33.03356">
        <ele>608.59</ele>
      </trkpt>
      <trkpt lat="35.01695" lon="33.03357">
        <ele>608.89</ele>
      </trkpt>
      <trkpt lat="35.01694" lon="33.03357">
        <ele>609.11</ele>
      </trkpt>
      <trkpt lat="35.01693" lon="33.03357">
        <ele>609.29</ele>
      </trkpt>
      <trkpt lat="35.01691" lon="33.03358">
        <ele>609.39</ele>
      </trkpt>
      <trkpt lat="35.01689" lon="33.03359">
        <ele>609.5</ele>
      </trkpt>
      <trkpt lat="35.01687" lon="33.0336">
        <ele>609.61</ele>
      </trkpt>
      <trkpt lat="35.01685" lon="33.03361">
        <ele>609.73</ele>
      </trkpt>
      <trkpt lat="35.01683" lon="33.03365">
        <ele>608.88</ele>
      </trkpt>
      <trkpt lat="35.01682" lon="33.0337">
        <ele>607.54</ele>
      </trkpt>
      <trkpt lat="35.01682" lon="33.03379">
        <ele>604.8</ele>
      </trkpt>
      <trkpt lat="35.0168" lon="33.03384">
        <ele>603.58</ele>
      </trkpt>
      <trkpt lat="35.01678" lon="33.03387">
        <ele>602.95</ele>
      </trkpt>
      <trkpt lat="35.01674" lon="33.03391">
        <ele>602.68</ele>
      </trkpt>
      <trkpt lat="35.01672" lon="33.03393">
        <ele>602.7</ele>
      </trkpt>
      <trkpt lat="35.0167" lon="33.03395">
        <ele>602.69</ele>
      </trkpt>
      <trkpt lat="35.01668" lon="33.03396">
        <ele>602.81</ele>
      </trkpt>
      <trkpt lat="35.01666" lon="33.03398">
        <ele>602.86</ele>
      </trkpt>
      <trkpt lat="35.01663" lon="33.03401">
        <ele>603.2</ele>
      </trkpt>
      <trkpt lat="35.01659" lon="33.03406">
        <ele>603.4</ele>
      </trkpt>
      <trkpt lat="35.01652" lon="33.0342">
        <ele>602.91</ele>
      </trkpt>
      <trkpt lat="35.0165" lon="33.03423">
        <ele>603.05</ele>
      </trkpt>
      <trkpt lat="35.01647" lon="33.03425">
        <ele>603.4</ele>
      </trkpt>
      <trkpt lat="35.01642" lon="33.03427">
        <ele>604.01</ele>
      </trkpt>
      <trkpt lat="35.01638" lon="33.03428">
        <ele>604.4</ele>
      </trkpt>
      <trkpt lat="35.01632" lon="33.03428">
        <ele>604.6</ele>
      </trkpt>
      <trkpt lat="35.01626" lon="33.03429">
        <ele>604.48</ele>
      </trkpt>
      <trkpt lat="35.01617" lon="33.0343">
        <ele>604.24</ele>
      </trkpt>
      <trkpt lat="35.01608" lon="33.03432">
        <ele>602.71</ele>
      </trkpt>
      <trkpt lat="35.01592" lon="33.03437">
        <ele>597.31</ele>
      </trkpt>
      <trkpt lat="35.01586" lon="33.03437">
        <ele>596.23</ele>
      </trkpt>
      <trkpt lat="35.01583" lon="33.03437">
        <ele>595.68</ele>
      </trkpt>
      <trkpt lat="35.01577" lon="33.03435">
        <ele>595.38</ele>
      </trkpt>
      <trkpt lat="35.01567" lon="33.03428">
        <ele>595.85</ele>
      </trkpt>
      <trkpt lat="35.01558" lon="33.03421">
        <ele>595.55</ele>
      </trkpt>
      <trkpt lat="35.0155" lon="33.03414">
        <ele>595.99</ele>
      </trkpt>
      <trkpt lat="35.01542" lon="33.03409">
        <ele>596.26</ele>
      </trkpt>
      <trkpt lat="35.0153" lon="33.03401">
        <ele>596.26</ele>
      </trkpt>
      <trkpt lat="35.0152" lon="33.03391">
        <ele>598.77</ele>
      </trkpt>
      <trkpt lat="35.01516" lon="33.03388">
        <ele>599.47</ele>
      </trkpt>
      <trkpt lat="35.01513" lon="33.03386">
        <ele>599.98</ele>
      </trkpt>
      <trkpt lat="35.01506" lon="33.03387">
        <ele>599.11</ele>
      </trkpt>
      <trkpt lat="35.01502" lon="33.03389">
        <ele>598.12</ele>
      </trkpt>
      <trkpt lat="35.01499" lon="33.03389">
        <ele>598.05</ele>
      </trkpt>
      <trkpt lat="35.01494" lon="33.03389">
        <ele>598.41</ele>
      </trkpt>
      <trkpt lat="35.01485" lon="33.03385">
        <ele>600.1</ele>
      </trkpt>
      <trkpt lat="35.01476" lon="33.03381">
        <ele>601.34</ele>
      </trkpt>
      <trkpt lat="35.01464" lon="33.03375">
        <ele>600.72</ele>
      </trkpt>
      <trkpt lat="35.01453" lon="33.03368">
        <ele>599.96</ele>
      </trkpt>
      <trkpt lat="35.01439" lon="33.03359">
        <ele>599.12</ele>
      </trkpt>
      <trkpt lat="35.01432" lon="33.03354">
        <ele>598.31</ele>
      </trkpt>
      <trkpt lat="35.01424" lon="33.03351">
        <ele>596.59</ele>
      </trkpt>
      <trkpt lat="35.01416" lon="33.03348">
        <ele>594.87</ele>
      </trkpt>
      <trkpt lat="35.01405" lon="33.03345">
        <ele>594.77</ele>
      </trkpt>
      <trkpt lat="35.01402" lon="33.03346">
        <ele>594.56</ele>
      </trkpt>
      <trkpt lat="35.01398" lon="33.03345">
        <ele>594.43</ele>
      </trkpt>
      <trkpt lat="35.01394" lon="33.03345">
        <ele>594.24</ele>
      </trkpt>
      <trkpt lat="35.01391" lon="33.03345">
        <ele>594.1</ele>
      </trkpt>
      <trkpt lat="35.01387" lon="33.03346">
        <ele>593.54</ele>
      </trkpt>
      <trkpt lat="35.01385" lon="33.03347">
        <ele>593.02</ele>
      </trkpt>
      <trkpt lat="35.01383" lon="33.03348">
        <ele>592.49</ele>
      </trkpt>
      <trkpt lat="35.01381" lon="33.0335">
        <ele>591.9</ele>
      </trkpt>
      <trkpt lat="35.01378" lon="33.03351">
        <ele>591.04</ele>
      </trkpt>
      <trkpt lat="35.01375" lon="33.0335">
        <ele>590.3</ele>
      </trkpt>
      <trkpt lat="35.01373" lon="33.03348">
        <ele>589.93</ele>
      </trkpt>
      <trkpt lat="35.01371" lon="33.03342">
        <ele>589.98</ele>
      </trkpt>
      <trkpt lat="35.01371" lon="33.03336">
        <ele>590.53</ele>
      </trkpt>
      <trkpt lat="35.01376" lon="33.03317">
        <ele>592.54</ele>
      </trkpt>
      <trkpt lat="35.0138" lon="33.03306">
        <ele>593.7</ele>
      </trkpt>
      <trkpt lat="35.01382" lon="33.03302">
        <ele>594.13</ele>
      </trkpt>
      <trkpt lat="35.01382" lon="33.03299">
        <ele>594.24</ele>
      </trkpt>
      <trkpt lat="35.01382" lon="33.03296">
        <ele>594.35</ele>
      </trkpt>
      <trkpt lat="35.01381" lon="33.03292">
        <ele>594.42</ele>
      </trkpt>
      <trkpt lat="35.01379" lon="33.0329">
        <ele>594.37</ele>
      </trkpt>
      <trkpt lat="35.01373" lon="33.03289">
        <ele>594.08</ele>
      </trkpt>
      <trkpt lat="35.01365" lon="33.03291">
        <ele>593.36</ele>
      </trkpt>
      <trkpt lat="35.0136" lon="33.03293">
        <ele>592.6</ele>
      </trkpt>
      <trkpt lat="35.01356" lon="33.03294">
        <ele>591.71</ele>
      </trkpt>
      <trkpt lat="35.01353" lon="33.03294">
        <ele>591.15</ele>
      </trkpt>
      <trkpt lat="35.0135" lon="33.03295">
        <ele>590.42</ele>
      </trkpt>
      <trkpt lat="35.01346" lon="33.03295">
        <ele>589.67</ele>
      </trkpt>
      <trkpt lat="35.01344" lon="33.03294">
        <ele>589.48</ele>
      </trkpt>
      <trkpt lat="35.0134" lon="33.03294">
        <ele>588.74</ele>
      </trkpt>
      <trkpt lat="35.01335" lon="33.03292">
        <ele>588.23</ele>
      </trkpt>
      <trkpt lat="35.0133" lon="33.03289">
        <ele>587.45</ele>
      </trkpt>
      <trkpt lat="35.0132" lon="33.0328">
        <ele>585.39</ele>
      </trkpt>
      <trkpt lat="35.01314" lon="33.03271">
        <ele>583.83</ele>
      </trkpt>
      <trkpt lat="35.01311" lon="33.03269">
        <ele>582.79</ele>
      </trkpt>
      <trkpt lat="35.01308" lon="33.03269">
        <ele>581.6</ele>
      </trkpt>
      <trkpt lat="35.01305" lon="33.03272">
        <ele>580.36</ele>
      </trkpt>
      <trkpt lat="35.01304" lon="33.03276">
        <ele>579.96</ele>
      </trkpt>
      <trkpt lat="35.01299" lon="33.03289">
        <ele>578.58</ele>
      </trkpt>
      <trkpt lat="35.01294" lon="33.03295">
        <ele>577.77</ele>
      </trkpt>
      <trkpt lat="35.0129" lon="33.03298">
        <ele>577.27</ele>
      </trkpt>
      <trkpt lat="35.01289" lon="33.03299">
        <ele>577.14</ele>
      </trkpt>
      <trkpt lat="35.01287" lon="33.03302">
        <ele>576.83</ele>
      </trkpt>
      <trkpt lat="35.01287" lon="33.03302">
        <ele>576.83</ele>
      </trkpt>
      <trkpt lat="35.01281" lon="33.03305">
        <ele>576.25</ele>
      </trkpt>
      <trkpt lat="35.01276" lon="33.03308">
        <ele>575.66</ele>
      </trkpt>
      <trkpt lat="35.0127" lon="33.0331">
        <ele>575.49</ele>
      </trkpt>
      <trkpt lat="35.01264" lon="33.0331">
        <ele>575.6</ele>
      </trkpt>
      <trkpt lat="35.0126" lon="33.03309">
        <ele>575.74</ele>
      </trkpt>
      <trkpt lat="35.01257" lon="33.03308">
        <ele>575.85</ele>
      </trkpt>
      <trkpt lat="35.01248" lon="33.03301">
        <ele>575.86</ele>
      </trkpt>
      <trkpt lat="35.01246" lon="33.033">
        <ele>575.71</ele>
      </trkpt>
      <trkpt lat="35.01242" lon="33.03296">
        <ele>575.42</ele>
      </trkpt>
      <trkpt lat="35.01238" lon="33.03291">
        <ele>575.14</ele>
      </trkpt>
      <trkpt lat="35.01232" lon="33.03286">
        <ele>574.7</ele>
      </trkpt>
      <trkpt lat="35.01228" lon="33.03284">
        <ele>574.42</ele>
      </trkpt>
      <trkpt lat="35.01225" lon="33.03285">
        <ele>574.2</ele>
      </trkpt>
      <trkpt lat="35.01223" lon="33.03287">
        <ele>574.06</ele>
      </trkpt>
      <trkpt lat="35.0122" lon="33.03293">
        <ele>574.04</ele>
      </trkpt>
      <trkpt lat="35.01218" lon="33.03297">
        <ele>574.05</ele>
      </trkpt>
      <trkpt lat="35.01218" lon="33.03301">
        <ele>574.02</ele>
      </trkpt>
      <trkpt lat="35.01218" lon="33.03304">
        <ele>574.01</ele>
      </trkpt>
      <trkpt lat="35.01217" lon="33.03307">
        <ele>574.02</ele>
      </trkpt>
      <trkpt lat="35.01217" lon="33.03314">
        <ele>574.11</ele>
      </trkpt>
      <trkpt lat="35.01217" lon="33.03323">
        <ele>574.24</ele>
      </trkpt>
      <trkpt lat="35.01218" lon="33.03332">
        <ele>574.29</ele>
      </trkpt>
      <trkpt lat="35.01218" lon="33.0334">
        <ele>574.1</ele>
      </trkpt>
      <trkpt lat="35.01218" lon="33.03356">
        <ele>573.61</ele>
      </trkpt>
      <trkpt lat="35.01217" lon="33.03359">
        <ele>573.63</ele>
      </trkpt>
      <trkpt lat="35.01217" lon="33.03362">
        <ele>573.45</ele>
      </trkpt>
      <trkpt lat="35.01214" lon="33.03368">
        <ele>573.04</ele>
      </trkpt>
      <trkpt lat="35.01211" lon="33.03375">
        <ele>572.62</ele>
      </trkpt>
      <trkpt lat="35.01207" lon="33.03382">
        <ele>572.46</ele>
      </trkpt>
      <trkpt lat="35.01205" lon="33.03385">
        <ele>572.49</ele>
      </trkpt>
      <trkpt lat="35.01201" lon="33.03387">
        <ele>572.99</ele>
      </trkpt>
      <trkpt lat="35.01198" lon="33.03388">
        <ele>573.43</ele>
      </trkpt>
      <trkpt lat="35.01195" lon="33.03388">
        <ele>573.97</ele>
      </trkpt>
      <trkpt lat="35.01191" lon="33.03386">
        <ele>574.95</ele>
      </trkpt>
      <trkpt lat="35.01187" lon="33.03384">
        <ele>575.96</ele>
      </trkpt>
      <trkpt lat="35.01182" lon="33.03379">
        <ele>577.4</ele>
      </trkpt>
      <trkpt lat="35.01177" lon="33.03373">
        <ele>578.91</ele>
      </trkpt>
      <trkpt lat="35.0117" lon="33.03366">
        <ele>580.93</ele>
      </trkpt>
      <trkpt lat="35.01165" lon="33.03356">
        <ele>582.07</ele>
      </trkpt>
      <trkpt lat="35.01162" lon="33.03348">
        <ele>582.25</ele>
      </trkpt>
      <trkpt lat="35.01159" lon="33.03339">
        <ele>582.5</ele>
      </trkpt>
      <trkpt lat="35.01159" lon="33.03332">
        <ele>582.48</ele>
      </trkpt>
      <trkpt lat="35.01158" lon="33.0333">
        <ele>582.46</ele>
      </trkpt>
      <trkpt lat="35.01158" lon="33.03321">
        <ele>582.01</ele>
      </trkpt>
      <trkpt lat="35.01157" lon="33.03317">
        <ele>581.93</ele>
      </trkpt>
      <trkpt lat="35.01157" lon="33.03312">
        <ele>581.69</ele>
      </trkpt>
      <trkpt lat="35.01156" lon="33.03309">
        <ele>581.69</ele>
      </trkpt>
      <trkpt lat="35.01156" lon="33.03301">
        <ele>581.64</ele>
      </trkpt>
      <trkpt lat="35.01155" lon="33.03296">
        <ele>581.88</ele>
      </trkpt>
      <trkpt lat="35.01153" lon="33.03293">
        <ele>582.2</ele>
      </trkpt>
      <trkpt lat="35.01151" lon="33.03291">
        <ele>582.48</ele>
      </trkpt>
      <trkpt lat="35.01149" lon="33.0329">
        <ele>582.75</ele>
      </trkpt>
      <trkpt lat="35.01148" lon="33.0329">
        <ele>582.87</ele>
      </trkpt>
      <trkpt lat="35.01147" lon="33.0329">
        <ele>583.0</ele>
      </trkpt>
      <trkpt lat="35.01145" lon="33.0329">
        <ele>583.24</ele>
      </trkpt>
      <trkpt lat="35.01142" lon="33.0329">
        <ele>583.61</ele>
      </trkpt>
      <trkpt lat="35.01136" lon="33.03293">
        <ele>584.62</ele>
      </trkpt>
      <trkpt lat="35.01131" lon="33.03294">
        <ele>585.7</ele>
      </trkpt>
      <trkpt lat="35.01129" lon="33.03294">
        <ele>586.14</ele>
      </trkpt>
      <trkpt lat="35.01125" lon="33.03292">
        <ele>587.0</ele>
      </trkpt>
      <trkpt lat="35.0112" lon="33.03288">
        <ele>588.08</ele>
      </trkpt>
      <trkpt lat="35.01118" lon="33.03285">
        <ele>588.51</ele>
      </trkpt>
      <trkpt lat="35.01116" lon="33.03279">
        <ele>588.94</ele>
      </trkpt>
      <trkpt lat="35.01114" lon="33.03275">
        <ele>589.23</ele>
      </trkpt>
      <trkpt lat="35.01113" lon="33.0327">
        <ele>589.13</ele>
      </trkpt>
      <trkpt lat="35.01111" lon="33.03264">
        <ele>589.02</ele>
      </trkpt>
      <trkpt lat="35.01109" lon="33.03257">
        <ele>588.79</ele>
      </trkpt>
      <trkpt lat="35.01109" lon="33.03249">
        <ele>588.38</ele>
      </trkpt>
      <trkpt lat="35.01112" lon="33.03238">
        <ele>588.91</ele>
      </trkpt>
      <trkpt lat="35.01112" lon="33.03234">
        <ele>589.23</ele>
      </trkpt>
      <trkpt lat="35.01112" lon="33.03231">
        <ele>589.47</ele>
      </trkpt>
      <trkpt lat="35.01109" lon="33.03228">
        <ele>590.01</ele>
      </trkpt>
      <trkpt lat="35.01107" lon="33.03226">
        <ele>590.58</ele>
      </trkpt>
      <trkpt lat="35.01104" lon="33.03225">
        <ele>591.28</ele>
      </trkpt>
      <trkpt lat="35.01102" lon="33.03224">
        <ele>591.8</ele>
      </trkpt>
      <trkpt lat="35.01099" lon="33.03224">
        <ele>592.43</ele>
      </trkpt>
      <trkpt lat="35.01095" lon="33.03224">
        <ele>593.28</ele>
      </trkpt>
      <trkpt lat="35.01089" lon="33.03225">
        <ele>594.42</ele>
      </trkpt>
      <trkpt lat="35.01084" lon="33.0323">
        <ele>594.75</ele>
      </trkpt>
      <trkpt lat="35.01081" lon="33.03233">
        <ele>595.04</ele>
      </trkpt>
      <trkpt lat="35.01079" lon="33.03236">
        <ele>595.11</ele>
      </trkpt>
      <trkpt lat="35.01078" lon="33.03239">
        <ele>594.93</ele>
      </trkpt>
      <trkpt lat="35.01078" lon="33.03243">
        <ele>594.35</ele>
      </trkpt>
      <trkpt lat="35.01077" lon="33.03245">
        <ele>594.32</ele>
      </trkpt>
      <trkpt lat="35.01076" lon="33.03249">
        <ele>593.99</ele>
      </trkpt>
      <trkpt lat="35.01076" lon="33.03264">
        <ele>593.82</ele>
      </trkpt>
      <trkpt lat="35.01075" lon="33.0327">
        <ele>593.96</ele>
      </trkpt>
      <trkpt lat="35.01075" lon="33.03284">
        <ele>593.61</ele>
      </trkpt>
      <trkpt lat="35.01076" lon="33.03288">
        <ele>593.33</ele>
      </trkpt>
      <trkpt lat="35.01076" lon="33.03297">
        <ele>592.92</ele>
      </trkpt>
      <trkpt lat="35.01077" lon="33.03302">
        <ele>592.61</ele>
      </trkpt>
      <trkpt lat="35.01077" lon="33.03307">
        <ele>592.25</ele>
      </trkpt>
      <trkpt lat="35.01077" lon="33.03313">
        <ele>591.38</ele>
      </trkpt>
      <trkpt lat="35.01077" lon="33.03314">
        <ele>591.24</ele>
      </trkpt>
      <trkpt lat="35.01077" lon="33.03316">
        <ele>590.95</ele>
      </trkpt>
      <trkpt lat="35.01076" lon="33.03322">
        <ele>590.16</ele>
      </trkpt>
      <trkpt lat="35.01076" lon="33.03325">
        <ele>589.73</ele>
      </trkpt>
      <trkpt lat="35.01075" lon="33.03328">
        <ele>589.37</ele>
      </trkpt>
      <trkpt lat="35.01073" lon="33.03333">
        <ele>588.79</ele>
      </trkpt>
      <trkpt lat="35.01071" lon="33.03333">
        <ele>588.94</ele>
      </trkpt>
      <trkpt lat="35.0107" lon="33.03331">
        <ele>589.3</ele>
      </trkpt>
      <trkpt lat="35.01069" lon="33.03325">
        <ele>590.23</ele>
      </trkpt>
      <trkpt lat="35.01068" lon="33.03321">
        <ele>590.88</ele>
      </trkpt>
      <trkpt lat="35.01069" lon="33.03319">
        <ele>591.1</ele>
      </trkpt>
      <trkpt lat="35.01069" lon="33.03315">
        <ele>591.67</ele>
      </trkpt>
      <trkpt lat="35.01068" lon="33.0331">
        <ele>592.46</ele>
      </trkpt>
      <trkpt lat="35.01068" lon="33.03305">
        <ele>593.14</ele>
      </trkpt>
      <trkpt lat="35.01067" lon="33.03298">
        <ele>593.61</ele>
      </trkpt>
      <trkpt lat="35.01065" lon="33.03292">
        <ele>594.13</ele>
      </trkpt>
      <trkpt lat="35.01061" lon="33.0329">
        <ele>594.62</ele>
      </trkpt>
      <trkpt lat="35.0106" lon="33.03292">
        <ele>594.58</ele>
      </trkpt>
      <trkpt lat="35.01058" lon="33.03296">
        <ele>594.48</ele>
      </trkpt>
      <trkpt lat="35.01056" lon="33.03298">
        <ele>594.51</ele>
      </trkpt>
      <trkpt lat="35.01054" lon="33.03296">
        <ele>594.39</ele>
      </trkpt>
      <trkpt lat="35.01052" lon="33.03298">
        <ele>593.85</ele>
      </trkpt>
      <trkpt lat="35.0105" lon="33.03301">
        <ele>593.19</ele>
      </trkpt>
      <trkpt lat="35.01047" lon="33.03299">
        <ele>592.77</ele>
      </trkpt>
      <trkpt lat="35.01044" lon="33.03294">
        <ele>592.68</ele>
      </trkpt>
      <trkpt lat="35.01044" lon="33.03293">
        <ele>592.78</ele>
      </trkpt>
      <trkpt lat="35.01043" lon="33.03291">
        <ele>592.81</ele>
      </trkpt>
      <trkpt lat="35.01042" lon="33.03288">
        <ele>592.95</ele>
      </trkpt>
      <trkpt lat="35.01041" lon="33.03287">
        <ele>592.89</ele>
      </trkpt>
      <trkpt lat="35.01039" lon="33.03285">
        <ele>592.79</ele>
      </trkpt>
      <trkpt lat="35.01038" lon="33.03283">
        <ele>592.86</ele>
      </trkpt>
      <trkpt lat="35.01035" lon="33.03281">
        <ele>592.64</ele>
      </trkpt>
      <trkpt lat="35.01034" lon="33.0328">
        <ele>592.61</ele>
      </trkpt>
      <trkpt lat="35.01032" lon="33.0328">
        <ele>592.31</ele>
      </trkpt>
      <trkpt lat="35.01032" lon="33.03282">
        <ele>592.05</ele>
      </trkpt>
      <trkpt lat="35.01035" lon="33.03286">
        <ele>592.01</ele>
      </trkpt>
      <trkpt lat="35.01038" lon="33.03293">
        <ele>591.68</ele>
      </trkpt>
      <trkpt lat="35.01038" lon="33.03294">
        <ele>591.57</ele>
      </trkpt>
      <trkpt lat="35.01037" lon="33.03297">
        <ele>591.02</ele>
      </trkpt>
      <trkpt lat="35.01037" lon="33.03299">
        <ele>590.78</ele>
      </trkpt>
      <trkpt lat="35.01037" lon="33.033">
        <ele>590.66</ele>
      </trkpt>
      <trkpt lat="35.01036" lon="33.03301">
        <ele>590.33</ele>
      </trkpt>
      <trkpt lat="35.01036" lon="33.03302">
        <ele>590.21</ele>
      </trkpt>
      <trkpt lat="35.01035" lon="33.03305">
        <ele>589.63</ele>
      </trkpt>
      <trkpt lat="35.01034" lon="33.03308">
        <ele>588.92</ele>
      </trkpt>
      <trkpt lat="35.01033" lon="33.03311">
        <ele>588.18</ele>
      </trkpt>
      <trkpt lat="35.01033" lon="33.03312">
        <ele>588.01</ele>
      </trkpt>
      <trkpt lat="35.01032" lon="33.03315">
        <ele>587.26</ele>
      </trkpt>
      <trkpt lat="35.01031" lon="33.03317">
        <ele>586.68</ele>
      </trkpt>
      <trkpt lat="35.01031" lon="33.03322">
        <ele>585.8</ele>
      </trkpt>
      <trkpt lat="35.01029" lon="33.03327">
        <ele>584.44</ele>
      </trkpt>
      <trkpt lat="35.01027" lon="33.03331">
        <ele>583.29</ele>
      </trkpt>
      <trkpt lat="35.01024" lon="33.03333">
        <ele>582.39</ele>
      </trkpt>
      <trkpt lat="35.01022" lon="33.03335">
        <ele>581.85</ele>
      </trkpt>
      <trkpt lat="35.01018" lon="33.03338">
        <ele>580.84</ele>
      </trkpt>
      <trkpt lat="35.01013" lon="33.03344">
        <ele>579.14</ele>
      </trkpt>
      <trkpt lat="35.0101" lon="33.03352">
        <ele>577.41</ele>
      </trkpt>
      <trkpt lat="35.01007" lon="33.03357">
        <ele>575.86</ele>
      </trkpt>
      <trkpt lat="35.01006" lon="33.03361">
        <ele>574.96</ele>
      </trkpt>
      <trkpt lat="35.01004" lon="33.03366">
        <ele>574.42</ele>
      </trkpt>
      <trkpt lat="35.01001" lon="33.03372">
        <ele>573.69</ele>
      </trkpt>
      <trkpt lat="35.01" lon="33.03375">
        <ele>573.5</ele>
      </trkpt>
      <trkpt lat="35.00994" lon="33.03388">
        <ele>570.76</ele>
      </trkpt>
      <trkpt lat="35.00993" lon="33.0339">
        <ele>570.01</ele>
      </trkpt>
      <trkpt lat="35.00989" lon="33.03398">
        <ele>566.67</ele>
      </trkpt>
      <trkpt lat="35.00987" lon="33.034">
        <ele>565.49</ele>
      </trkpt>
      <trkpt lat="35.00984" lon="33.03403">
        <ele>563.85</ele>
      </trkpt>
      <trkpt lat="35.0098" lon="33.03408">
        <ele>561.85</ele>
      </trkpt>
      <trkpt lat="35.00972" lon="33.03414">
        <ele>558.94</ele>
      </trkpt>
      <trkpt lat="35.00967" lon="33.03418">
        <ele>557.4</ele>
      </trkpt>
      <trkpt lat="35.00959" lon="33.03427">
        <ele>554.45</ele>
      </trkpt>
      <trkpt lat="35.00953" lon="33.03435">
        <ele>552.14</ele>
      </trkpt>
      <trkpt lat="35.00949" lon="33.0344">
        <ele>550.63</ele>
      </trkpt>
      <trkpt lat="35.00946" lon="33.03443">
        <ele>549.55</ele>
      </trkpt>
      <trkpt lat="35.00943" lon="33.03446">
        <ele>549.1</ele>
      </trkpt>
      <trkpt lat="35.00939" lon="33.03448">
        <ele>549.46</ele>
      </trkpt>
      <trkpt lat="35.00935" lon="33.0345">
        <ele>549.82</ele>
      </trkpt>
      <trkpt lat="35.00931" lon="33.03452">
        <ele>550.18</ele>
      </trkpt>
      <trkpt lat="35.00926" lon="33.03456">
        <ele>550.58</ele>
      </trkpt>
      <trkpt lat="35.0092" lon="33.03466">
        <ele>550.86</ele>
      </trkpt>
      <trkpt lat="35.00915" lon="33.03475">
        <ele>550.48</ele>
      </trkpt>
      <trkpt lat="35.00912" lon="33.03482">
        <ele>549.04</ele>
      </trkpt>
      <trkpt lat="35.00911" lon="33.03488">
        <ele>547.64</ele>
      </trkpt>
      <trkpt lat="35.00909" lon="33.03506">
        <ele>543.29</ele>
      </trkpt>
      <trkpt lat="35.00909" lon="33.03513">
        <ele>541.5</ele>
      </trkpt>
      <trkpt lat="35.00908" lon="33.0352">
        <ele>539.72</ele>
      </trkpt>
      <trkpt lat="35.00905" lon="33.03523">
        <ele>538.9</ele>
      </trkpt>
      <trkpt lat="35.00903" lon="33.03524">
        <ele>538.59</ele>
      </trkpt>
      <trkpt lat="35.00898" lon="33.03528">
        <ele>537.29</ele>
      </trkpt>
      <trkpt lat="35.00882" lon="33.0354">
        <ele>536.32</ele>
      </trkpt>
      <trkpt lat="35.00875" lon="33.03543">
        <ele>537.21</ele>
      </trkpt>
      <trkpt lat="35.00871" lon="33.03543">
        <ele>538.06</ele>
      </trkpt>
      <trkpt lat="35.00866" lon="33.03543">
        <ele>539.12</ele>
      </trkpt>
      <trkpt lat="35.00863" lon="33.03541">
        <ele>540.26</ele>
      </trkpt>
      <trkpt lat="35.00856" lon="33.03537">
        <ele>542.78</ele>
      </trkpt>
      <trkpt lat="35.00849" lon="33.03531">
        <ele>545.52</ele>
      </trkpt>
      <trkpt lat="35.00842" lon="33.03527">
        <ele>547.6</ele>
      </trkpt>
      <trkpt lat="35.00834" lon="33.03523">
        <ele>549.59</ele>
      </trkpt>
      <trkpt lat="35.00829" lon="33.0352">
        <ele>550.95</ele>
      </trkpt>
      <trkpt lat="35.00826" lon="33.03517">
        <ele>551.79</ele>
      </trkpt>
      <trkpt lat="35.00823" lon="33.03515">
        <ele>552.42</ele>
      </trkpt>
      <trkpt lat="35.00822" lon="33.03513">
        <ele>552.68</ele>
      </trkpt>
      <trkpt lat="35.0082" lon="33.03511">
        <ele>553.04</ele>
      </trkpt>
      <trkpt lat="35.00819" lon="33.03509">
        <ele>553.22</ele>
      </trkpt>
      <trkpt lat="35.00818" lon="33.03507">
        <ele>553.38</ele>
      </trkpt>
      <trkpt lat="35.00818" lon="33.03504">
        <ele>553.45</ele>
      </trkpt>
      <trkpt lat="35.00818" lon="33.03501">
        <ele>553.53</ele>
      </trkpt>
      <trkpt lat="35.0082" lon="33.03491">
        <ele>553.18</ele>
      </trkpt>
      <trkpt lat="35.0082" lon="33.03488">
        <ele>553.08</ele>
      </trkpt>
      <trkpt lat="35.0082" lon="33.03484">
        <ele>552.95</ele>
      </trkpt>
      <trkpt lat="35.00819" lon="33.03481">
        <ele>552.79</ele>
      </trkpt>
      <trkpt lat="35.00819" lon="33.03478">
        <ele>552.67</ele>
      </trkpt>
      <trkpt lat="35.00815" lon="33.03467">
        <ele>552.84</ele>
      </trkpt>
      <trkpt lat="35.00814" lon="33.03462">
        <ele>553.43</ele>
      </trkpt>
      <trkpt lat="35.00814" lon="33.03459">
        <ele>553.88</ele>
      </trkpt>
      <trkpt lat="35.00812" lon="33.03452">
        <ele>554.33</ele>
      </trkpt>
      <trkpt lat="35.00812" lon="33.03449">
        <ele>554.73</ele>
      </trkpt>
      <trkpt lat="35.00805" lon="33.03434">
        <ele>554.94</ele>
      </trkpt>
      <trkpt lat="35.00799" lon="33.03422">
        <ele>557.6</ele>
      </trkpt>
      <trkpt lat="35.00794" lon="33.03414">
        <ele>559.55</ele>
      </trkpt>
      <trkpt lat="35.00792" lon="33.03412">
        <ele>560.16</ele>
      </trkpt>
      <trkpt lat="35.00789" lon="33.0341">
        <ele>560.73</ele>
      </trkpt>
      <trkpt lat="35.00787" lon="33.03408">
        <ele>561.21</ele>
      </trkpt>
      <trkpt lat="35.00785" lon="33.03407">
        <ele>561.41</ele>
      </trkpt>
      <trkpt lat="35.00782" lon="33.03404">
        <ele>561.94</ele>
      </trkpt>
      <trkpt lat="35.00779" lon="33.03403">
        <ele>562.01</ele>
      </trkpt>
      <trkpt lat="35.00777" lon="33.03402">
        <ele>562.36</ele>
      </trkpt>
      <trkpt lat="35.00774" lon="33.03403">
        <ele>563.2</ele>
      </trkpt>
      <trkpt lat="35.00773" lon="33.03404">
        <ele>563.4</ele>
      </trkpt>
      <trkpt lat="35.00773" lon="33.03407">
        <ele>563.04</ele>
      </trkpt>
      <trkpt lat="35.00773" lon="33.0341">
        <ele>562.69</ele>
      </trkpt>
      <trkpt lat="35.00776" lon="33.03416">
        <ele>560.79</ele>
      </trkpt>
      <trkpt lat="35.0078" lon="33.03424">
        <ele>559.01</ele>
      </trkpt>
      <trkpt lat="35.00784" lon="33.03432">
        <ele>557.65</ele>
      </trkpt>
      <trkpt lat="35.00788" lon="33.03444">
        <ele>555.59</ele>
      </trkpt>
      <trkpt lat="35.00789" lon="33.03453">
        <ele>554.4</ele>
      </trkpt>
      <trkpt lat="35.00789" lon="33.0346">
        <ele>553.6</ele>
      </trkpt>
      <trkpt lat="35.00788" lon="33.03466">
        <ele>553.0</ele>
      </trkpt>
      <trkpt lat="35.00788" lon="33.03469">
        <ele>552.64</ele>
      </trkpt>
      <trkpt lat="35.00788" lon="33.03471">
        <ele>552.41</ele>
      </trkpt>
      <trkpt lat="35.00788" lon="33.03472">
        <ele>552.29</ele>
      </trkpt>
      <trkpt lat="35.00788" lon="33.03474">
        <ele>552.29</ele>
      </trkpt>
      <trkpt lat="35.00787" lon="33.03476">
        <ele>552.38</ele>
      </trkpt>
      <trkpt lat="35.00787" lon="33.03478">
        <ele>552.4</ele>
      </trkpt>
      <trkpt lat="35.00787" lon="33.0348">
        <ele>552.43</ele>
      </trkpt>
      <trkpt lat="35.00787" lon="33.03483">
        <ele>552.46</ele>
      </trkpt>
      <trkpt lat="35.00785" lon="33.03491">
        <ele>552.51</ele>
      </trkpt>
      <trkpt lat="35.0078" lon="33.03507">
        <ele>552.43</ele>
      </trkpt>
      <trkpt lat="35.00779" lon="33.03516">
        <ele>552.69</ele>
      </trkpt>
      <trkpt lat="35.00777" lon="33.03519">
        <ele>552.81</ele>
      </trkpt>
      <trkpt lat="35.00776" lon="33.03525">
        <ele>553.17</ele>
      </trkpt>
      <trkpt lat="35.00775" lon="33.03529">
        <ele>553.31</ele>
      </trkpt>
      <trkpt lat="35.00774" lon="33.03532">
        <ele>553.24</ele>
      </trkpt>
      <trkpt lat="35.00774" lon="33.03535">
        <ele>553.02</ele>
      </trkpt>
      <trkpt lat="35.00773" lon="33.0354">
        <ele>552.81</ele>
      </trkpt>
      <trkpt lat="35.00774" lon="33.03547">
        <ele>552.16</ele>
      </trkpt>
      <trkpt lat="35.00783" lon="33.03573">
        <ele>544.65</ele>
      </trkpt>
      <trkpt lat="35.00786" lon="33.03578">
        <ele>542.86</ele>
      </trkpt>
      <trkpt lat="35.00787" lon="33.0358">
        <ele>542.16</ele>
      </trkpt>
      <trkpt lat="35.00792" lon="33.03586">
        <ele>540.28</ele>
      </trkpt>
      <trkpt lat="35.00796" lon="33.03588">
        <ele>539.71</ele>
      </trkpt>
      <trkpt lat="35.00801" lon="33.0359">
        <ele>539.12</ele>
      </trkpt>
      <trkpt lat="35.00805" lon="33.03594">
        <ele>537.94</ele>
      </trkpt>
      <trkpt lat="35.00807" lon="33.03599">
        <ele>536.58</ele>
      </trkpt>
      <trkpt lat="35.00807" lon="33.03605">
        <ele>534.88</ele>
      </trkpt>
      <trkpt lat="35.00806" lon="33.03607">
        <ele>534.22</ele>
      </trkpt>
      <trkpt lat="35.00803" lon="33.0361">
        <ele>533.41</ele>
      </trkpt>
      <trkpt lat="35.008" lon="33.03613">
        <ele>532.74</ele>
      </trkpt>
      <trkpt lat="35.00786" lon="33.0362">
        <ele>531.69</ele>
      </trkpt>
      <trkpt lat="35.00773" lon="33.03622">
        <ele>532.37</ele>
      </trkpt>
      <trkpt lat="35.00764" lon="33.03624">
        <ele>533.24</ele>
      </trkpt>
      <trkpt lat="35.00758" lon="33.03626">
        <ele>533.58</ele>
      </trkpt>
      <trkpt lat="35.00753" lon="33.03626">
        <ele>534.29</ele>
      </trkpt>
      <trkpt lat="35.00752" lon="33.03626">
        <ele>534.43</ele>
      </trkpt>
      <trkpt lat="35.00751" lon="33.03626">
        <ele>534.57</ele>
      </trkpt>
      <trkpt lat="35.00746" lon="33.03626">
        <ele>535.35</ele>
      </trkpt>
      <trkpt lat="35.00743" lon="33.03627">
        <ele>535.54</ele>
      </trkpt>
      <trkpt lat="35.00738" lon="33.03628">
        <ele>536.03</ele>
      </trkpt>
      <trkpt lat="35.00731" lon="33.0363">
        <ele>536.51</ele>
      </trkpt>
      <trkpt lat="35.00724" lon="33.03632">
        <ele>536.96</ele>
      </trkpt>
      <trkpt lat="35.00719" lon="33.03634">
        <ele>536.58</ele>
      </trkpt>
      <trkpt lat="35.0071" lon="33.0364">
        <ele>534.27</ele>
      </trkpt>
      <trkpt lat="35.00707" lon="33.03642">
        <ele>534.28</ele>
      </trkpt>
      <trkpt lat="35.00698" lon="33.03648">
        <ele>534.04</ele>
      </trkpt>
      <trkpt lat="35.00691" lon="33.03653">
        <ele>534.25</ele>
      </trkpt>
      <trkpt lat="35.00681" lon="33.03662">
        <ele>534.03</ele>
      </trkpt>
      <trkpt lat="35.00675" lon="33.03668">
        <ele>532.94</ele>
      </trkpt>
      <trkpt lat="35.00671" lon="33.03671">
        <ele>532.54</ele>
      </trkpt>
      <trkpt lat="35.00668" lon="33.03672">
        <ele>532.17</ele>
      </trkpt>
      <trkpt lat="35.00665" lon="33.03672">
        <ele>531.83</ele>
      </trkpt>
      <trkpt lat="35.00662" lon="33.03673">
        <ele>531.51</ele>
      </trkpt>
      <trkpt lat="35.00655" lon="33.0367">
        <ele>530.96</ele>
      </trkpt>
      <trkpt lat="35.00653" lon="33.03669">
        <ele>530.85</ele>
      </trkpt>
      <trkpt lat="35.0065" lon="33.0367">
        <ele>530.51</ele>
      </trkpt>
      <trkpt lat="35.00648" lon="33.03671">
        <ele>530.24</ele>
      </trkpt>
      <trkpt lat="35.00647" lon="33.03674">
        <ele>529.84</ele>
      </trkpt>
      <trkpt lat="35.00646" lon="33.03679">
        <ele>529.19</ele>
      </trkpt>
      <trkpt lat="35.00645" lon="33.03684">
        <ele>528.49</ele>
      </trkpt>
      <trkpt lat="35.00643" lon="33.0369">
        <ele>527.43</ele>
      </trkpt>
      <trkpt lat="35.00642" lon="33.03692">
        <ele>526.98</ele>
      </trkpt>
      <trkpt lat="35.00641" lon="33.03694">
        <ele>526.52</ele>
      </trkpt>
      <trkpt lat="35.0064" lon="33.03697">
        <ele>526.44</ele>
      </trkpt>
      <trkpt lat="35.00632" lon="33.03701">
        <ele>527.73</ele>
      </trkpt>
      <trkpt lat="35.00626" lon="33.03703">
        <ele>528.83</ele>
      </trkpt>
      <trkpt lat="35.0062" lon="33.03706">
        <ele>529.78</ele>
      </trkpt>
      <trkpt lat="35.00609" lon="33.0371">
        <ele>531.52</ele>
      </trkpt>
      <trkpt lat="35.00605" lon="33.03711">
        <ele>532.66</ele>
      </trkpt>
      <trkpt lat="35.00602" lon="33.03711">
        <ele>533.56</ele>
      </trkpt>
      <trkpt lat="35.00598" lon="33.03712">
        <ele>534.69</ele>
      </trkpt>
      <trkpt lat="35.00595" lon="33.03712">
        <ele>535.59</ele>
      </trkpt>
      <trkpt lat="35.00592" lon="33.03711">
        <ele>536.59</ele>
      </trkpt>
      <trkpt lat="35.00587" lon="33.03709">
        <ele>538.31</ele>
      </trkpt>
      <trkpt lat="35.00584" lon="33.0371">
        <ele>539.12</ele>
      </trkpt>
      <trkpt lat="35.00577" lon="33.03718">
        <ele>539.44</ele>
      </trkpt>
      <trkpt lat="35.00569" lon="33.03721">
        <ele>540.24</ele>
      </trkpt>
      <trkpt lat="35.00563" lon="33.03719">
        <ele>541.45</ele>
      </trkpt>
      <trkpt lat="35.00559" lon="33.03716">
        <ele>542.57</ele>
      </trkpt>
      <trkpt lat="35.00556" lon="33.03711">
        <ele>543.94</ele>
      </trkpt>
      <trkpt lat="35.0055" lon="33.03701">
        <ele>547.35</ele>
      </trkpt>
      <trkpt lat="35.00548" lon="33.03698">
        <ele>548.73</ele>
      </trkpt>
      <trkpt lat="35.00546" lon="33.03697">
        <ele>549.66</ele>
      </trkpt>
      <trkpt lat="35.00541" lon="33.03696">
        <ele>551.67</ele>
      </trkpt>
      <trkpt lat="35.00536" lon="33.03698">
        <ele>552.5</ele>
      </trkpt>
      <trkpt lat="35.00534" lon="33.03702">
        <ele>551.29</ele>
      </trkpt>
      <trkpt lat="35.00535" lon="33.03708">
        <ele>548.35</ele>
      </trkpt>
      <trkpt lat="35.00536" lon="33.03712">
        <ele>546.43</ele>
      </trkpt>
      <trkpt lat="35.00537" lon="33.03713">
        <ele>545.88</ele>
      </trkpt>
      <trkpt lat="35.00538" lon="33.03715">
        <ele>544.94</ele>
      </trkpt>
      <trkpt lat="35.00538" lon="33.03715">
        <ele>544.94</ele>
      </trkpt>
      <trkpt lat="35.00538" lon="33.03717">
        <ele>544.13</ele>
      </trkpt>
      <trkpt lat="35.00539" lon="33.03719">
        <ele>543.27</ele>
      </trkpt>
      <trkpt lat="35.00538" lon="33.03721">
        <ele>542.5</ele>
      </trkpt>
      <trkpt lat="35.00537" lon="33.03725">
        <ele>541.6</ele>
      </trkpt>
      <trkpt lat="35.00533" lon="33.03729">
        <ele>541.34</ele>
      </trkpt>
      <trkpt lat="35.00525" lon="33.03734">
        <ele>542.08</ele>
      </trkpt>
      <trkpt lat="35.00523" lon="33.03735">
        <ele>542.36</ele>
      </trkpt>
      <trkpt lat="35.00521" lon="33.03735">
        <ele>542.71</ele>
      </trkpt>
      <trkpt lat="35.00513" lon="33.03735">
        <ele>544.08</ele>
      </trkpt>
      <trkpt lat="35.00499" lon="33.03729">
        <ele>548.2</ele>
      </trkpt>
      <trkpt lat="35.00478" lon="33.03717">
        <ele>555.95</ele>
      </trkpt>
      <trkpt lat="35.00473" lon="33.03715">
        <ele>557.78</ele>
      </trkpt>
      <trkpt lat="35.00469" lon="33.03714">
        <ele>559.09</ele>
      </trkpt>
      <trkpt lat="35.00466" lon="33.03714">
        <ele>559.7</ele>
      </trkpt>
      <trkpt lat="35.00465" lon="33.03714">
        <ele>559.9</ele>
      </trkpt>
      <trkpt lat="35.00464" lon="33.03714">
        <ele>560.11</ele>
      </trkpt>
      <trkpt lat="35.00462" lon="33.03715">
        <ele>560.08</ele>
      </trkpt>
      <trkpt lat="35.00461" lon="33.03715">
        <ele>560.29</ele>
      </trkpt>
      <trkpt lat="35.00458" lon="33.03715">
        <ele>560.93</ele>
      </trkpt>
      <trkpt lat="35.00453" lon="33.03714">
        <ele>562.34</ele>
      </trkpt>
      <trkpt lat="35.00448" lon="33.03712">
        <ele>563.93</ele>
      </trkpt>
      <trkpt lat="35.00442" lon="33.03708">
        <ele>565.19</ele>
      </trkpt>
      <trkpt lat="35.00439" lon="33.03704">
        <ele>565.68</ele>
      </trkpt>
      <trkpt lat="35.00437" lon="33.03703">
        <ele>565.59</ele>
      </trkpt>
      <trkpt lat="35.00433" lon="33.03699">
        <ele>565.86</ele>
      </trkpt>
      <trkpt lat="35.0043" lon="33.03696">
        <ele>566.04</ele>
      </trkpt>
      <trkpt lat="35.00428" lon="33.03695">
        <ele>565.91</ele>
      </trkpt>
      <trkpt lat="35.00424" lon="33.03692">
        <ele>566.29</ele>
      </trkpt>
      <trkpt lat="35.0042" lon="33.03688">
        <ele>567.15</ele>
      </trkpt>
      <trkpt lat="35.0041" lon="33.03685">
        <ele>566.94</ele>
      </trkpt>
      <trkpt lat="35.00407" lon="33.03685">
        <ele>566.58</ele>
      </trkpt>
      <trkpt lat="35.004" lon="33.03685">
        <ele>565.75</ele>
      </trkpt>
      <trkpt lat="35.00391" lon="33.03688">
        <ele>563.28</ele>
      </trkpt>
      <trkpt lat="35.00388" lon="33.03689">
        <ele>562.79</ele>
      </trkpt>
      <trkpt lat="35.00384" lon="33.03692">
        <ele>562.32</ele>
      </trkpt>
      <trkpt lat="35.00381" lon="33.03694">
        <ele>561.95</ele>
      </trkpt>
      <trkpt lat="35.00381" lon="33.03694">
        <ele>561.95</ele>
      </trkpt>
      <trkpt lat="35.00378" lon="33.03696">
        <ele>561.71</ele>
      </trkpt>
      <trkpt lat="35.00375" lon="33.03699">
        <ele>560.95</ele>
      </trkpt>
      <trkpt lat="35.00373" lon="33.03702">
        <ele>559.86</ele>
      </trkpt>
      <trkpt lat="35.0037" lon="33.03705">
        <ele>558.71</ele>
      </trkpt>
      <trkpt lat="35.00368" lon="33.03708">
        <ele>557.31</ele>
      </trkpt>
      <trkpt lat="35.00365" lon="33.03712">
        <ele>555.21</ele>
      </trkpt>
      <trkpt lat="35.00362" lon="33.03715">
        <ele>553.44</ele>
      </trkpt>
      <trkpt lat="35.00357" lon="33.03721">
        <ele>551.74</ele>
      </trkpt>
      <trkpt lat="35.00354" lon="33.03725">
        <ele>551.42</ele>
      </trkpt>
      <trkpt lat="35.00353" lon="33.03726">
        <ele>551.53</ele>
      </trkpt>
      <trkpt lat="35.00352" lon="33.03728">
        <ele>551.26</ele>
      </trkpt>
      <trkpt lat="35.0035" lon="33.03732">
        <ele>550.61</ele>
      </trkpt>
      <trkpt lat="35.00348" lon="33.03735">
        <ele>550.18</ele>
      </trkpt>
      <trkpt lat="35.00344" lon="33.03746">
        <ele>546.8</ele>
      </trkpt>
      <trkpt lat="35.00336" lon="33.03764">
        <ele>544.15</ele>
      </trkpt>
      <trkpt lat="35.00335" lon="33.03767">
        <ele>543.75</ele>
      </trkpt>
      <trkpt lat="35.00334" lon="33.03776">
        <ele>542.27</ele>
      </trkpt>
      <trkpt lat="35.00333" lon="33.03778">
        <ele>542.13</ele>
      </trkpt>
      <trkpt lat="35.00333" lon="33.03779">
        <ele>542.05</ele>
      </trkpt>
      <trkpt lat="35.00332" lon="33.03781">
        <ele>542.29</ele>
      </trkpt>
      <trkpt lat="35.00331" lon="33.03783">
        <ele>542.47</ele>
      </trkpt>
      <trkpt lat="35.00331" lon="33.03784">
        <ele>542.37</ele>
      </trkpt>
      <trkpt lat="35.0033" lon="33.03787">
        <ele>542.38</ele>
      </trkpt>
      <trkpt lat="35.00329" lon="33.0379">
        <ele>542.31</ele>
      </trkpt>
      <trkpt lat="35.00327" lon="33.03793">
        <ele>542.39</ele>
      </trkpt>
      <trkpt lat="35.00323" lon="33.03798">
        <ele>542.3</ele>
      </trkpt>
      <trkpt lat="35.00319" lon="33.03804">
        <ele>541.43</ele>
      </trkpt>
      <trkpt lat="35.00316" lon="33.03808">
        <ele>541.24</ele>
      </trkpt>
      <trkpt lat="35.0031" lon="33.03818">
        <ele>541.14</ele>
      </trkpt>
      <trkpt lat="35.00301" lon="33.03827">
        <ele>541.46</ele>
      </trkpt>
      <trkpt lat="35.00288" lon="33.03837">
        <ele>543.08</ele>
      </trkpt>
      <trkpt lat="35.00283" lon="33.03842">
        <ele>543.81</ele>
      </trkpt>
      <trkpt lat="35.0027" lon="33.0385">
        <ele>546.02</ele>
      </trkpt>
      <trkpt lat="35.00265" lon="33.03853">
        <ele>546.61</ele>
      </trkpt>
      <trkpt lat="35.00261" lon="33.03855">
        <ele>546.96</ele>
      </trkpt>
      <trkpt lat="35.00257" lon="33.03857">
        <ele>547.17</ele>
      </trkpt>
      <trkpt lat="35.00252" lon="33.0386">
        <ele>547.08</ele>
      </trkpt>
      <trkpt lat="35.00246" lon="33.03865">
        <ele>548.17</ele>
      </trkpt>
      <trkpt lat="35.00243" lon="33.03869">
        <ele>548.9</ele>
      </trkpt>
      <trkpt lat="35.00242" lon="33.03875">
        <ele>549.15</ele>
      </trkpt>
      <trkpt lat="35.00243" lon="33.03878">
        <ele>549.06</ele>
      </trkpt>
      <trkpt lat="35.00248" lon="33.03888">
        <ele>549.02</ele>
      </trkpt>
      <trkpt lat="35.00248" lon="33.03888">
        <ele>549.02</ele>
      </trkpt>
      <trkpt lat="35.00252" lon="33.03899">
        <ele>550.07</ele>
      </trkpt>
      <trkpt lat="35.00253" lon="33.039">
        <ele>550.18</ele>
      </trkpt>
      <trkpt lat="35.00256" lon="33.03901">
        <ele>550.28</ele>
      </trkpt>
      <trkpt lat="35.00258" lon="33.03901">
        <ele>550.27</ele>
      </trkpt>
      <trkpt lat="35.00274" lon="33.03891">
        <ele>548.5</ele>
      </trkpt>
      <trkpt lat="35.00279" lon="33.03887">
        <ele>547.59</ele>
      </trkpt>
      <trkpt lat="35.00282" lon="33.03885">
        <ele>546.96</ele>
      </trkpt>
      <trkpt lat="35.00284" lon="33.03883">
        <ele>546.43</ele>
      </trkpt>
      <trkpt lat="35.00285" lon="33.03883">
        <ele>546.32</ele>
      </trkpt>
      <trkpt lat="35.00291" lon="33.0388">
        <ele>545.14</ele>
      </trkpt>
      <trkpt lat="35.003" lon="33.03876">
        <ele>543.37</ele>
      </trkpt>
      <trkpt lat="35.00311" lon="33.03873">
        <ele>543.29</ele>
      </trkpt>
      <trkpt lat="35.00321" lon="33.03873">
        <ele>545.4</ele>
      </trkpt>
      <trkpt lat="35.00325" lon="33.03874">
        <ele>546.47</ele>
      </trkpt>
      <trkpt lat="35.00329" lon="33.03875">
        <ele>547.56</ele>
      </trkpt>
      <trkpt lat="35.00334" lon="33.03875">
        <ele>548.55</ele>
      </trkpt>
      <trkpt lat="35.00338" lon="33.03873">
        <ele>548.36</ele>
      </trkpt>
      <trkpt lat="35.00344" lon="33.0387">
        <ele>548.15</ele>
      </trkpt>
      <trkpt lat="35.00354" lon="33.03866">
        <ele>548.2</ele>
      </trkpt>
      <trkpt lat="35.00363" lon="33.03861">
        <ele>548.39</ele>
      </trkpt>
      <trkpt lat="35.00366" lon="33.03858">
        <ele>548.61</ele>
      </trkpt>
      <trkpt lat="35.00368" lon="33.03856">
        <ele>548.75</ele>
      </trkpt>
      <trkpt lat="35.0037" lon="33.03854">
        <ele>548.9</ele>
      </trkpt>
      <trkpt lat="35.00371" lon="33.03852">
        <ele>548.82</ele>
      </trkpt>
      <trkpt lat="35.00373" lon="33.0385">
        <ele>548.97</ele>
      </trkpt>
      <trkpt lat="35.00374" lon="33.03848">
        <ele>548.9</ele>
      </trkpt>
      <trkpt lat="35.00375" lon="33.03845">
        <ele>548.68</ele>
      </trkpt>
      <trkpt lat="35.00375" lon="33.03842">
        <ele>548.25</ele>
      </trkpt>
      <trkpt lat="35.00376" lon="33.03839">
        <ele>548.03</ele>
      </trkpt>
      <trkpt lat="35.00378" lon="33.03835">
        <ele>547.89</ele>
      </trkpt>
      <trkpt lat="35.00379" lon="33.03827">
        <ele>547.26</ele>
      </trkpt>
      <trkpt lat="35.00379" lon="33.03816">
        <ele>546.21</ele>
      </trkpt>
      <trkpt lat="35.00379" lon="33.03812">
        <ele>545.83</ele>
      </trkpt>
      <trkpt lat="35.0038" lon="33.03809">
        <ele>545.73</ele>
      </trkpt>
      <trkpt lat="35.00382" lon="33.03804">
        <ele>545.65</ele>
      </trkpt>
      <trkpt lat="35.00386" lon="33.03798">
        <ele>545.94</ele>
      </trkpt>
      <trkpt lat="35.0039" lon="33.03795">
        <ele>546.26</ele>
      </trkpt>
      <trkpt lat="35.00396" lon="33.03794">
        <ele>546.34</ele>
      </trkpt>
      <trkpt lat="35.00406" lon="33.03796">
        <ele>546.54</ele>
      </trkpt>
      <trkpt lat="35.00409" lon="33.03796">
        <ele>546.58</ele>
      </trkpt>
      <trkpt lat="35.00417" lon="33.03797">
        <ele>546.61</ele>
      </trkpt>
      <trkpt lat="35.00422" lon="33.03798">
        <ele>546.44</ele>
      </trkpt>
      <trkpt lat="35.00427" lon="33.03798">
        <ele>546.34</ele>
      </trkpt>
      <trkpt lat="35.00432" lon="33.038">
        <ele>546.18</ele>
      </trkpt>
      <trkpt lat="35.00438" lon="33.03801">
        <ele>546.08</ele>
      </trkpt>
      <trkpt lat="35.0044" lon="33.03803">
        <ele>546.03</ele>
      </trkpt>
      <trkpt lat="35.00442" lon="33.03806">
        <ele>545.99</ele>
      </trkpt>
      <trkpt lat="35.00443" lon="33.0381">
        <ele>545.87</ele>
      </trkpt>
      <trkpt lat="35.00442" lon="33.03813">
        <ele>545.83</ele>
      </trkpt>
      <trkpt lat="35.00443" lon="33.03816">
        <ele>545.7</ele>
      </trkpt>
      <trkpt lat="35.00442" lon="33.03822">
        <ele>545.62</ele>
      </trkpt>
      <trkpt lat="35.00442" lon="33.03847">
        <ele>547.86</ele>
      </trkpt>
      <trkpt lat="35.00438" lon="33.03861">
        <ele>551.14</ele>
      </trkpt>
      <trkpt lat="35.00438" lon="33.03865">
        <ele>552.36</ele>
      </trkpt>
      <trkpt lat="35.00439" lon="33.03869">
        <ele>553.42</ele>
      </trkpt>
      <trkpt lat="35.00443" lon="33.03873">
        <ele>554.07</ele>
      </trkpt>
      <trkpt lat="35.00449" lon="33.03875">
        <ele>553.93</ele>
      </trkpt>
      <trkpt lat="35.00453" lon="33.03875">
        <ele>553.42</ele>
      </trkpt>
      <trkpt lat="35.00458" lon="33.03875">
        <ele>552.79</ele>
      </trkpt>
      <trkpt lat="35.00462" lon="33.03875">
        <ele>552.29</ele>
      </trkpt>
      <trkpt lat="35.00466" lon="33.03876">
        <ele>552.19</ele>
      </trkpt>
      <trkpt lat="35.00469" lon="33.03876">
        <ele>551.83</ele>
      </trkpt>
      <trkpt lat="35.00471" lon="33.03877">
        <ele>552.01</ele>
      </trkpt>
      <trkpt lat="35.00476" lon="33.03877">
        <ele>551.36</ele>
      </trkpt>
      <trkpt lat="35.00479" lon="33.03877">
        <ele>550.96</ele>
      </trkpt>
      <trkpt lat="35.00485" lon="33.03877">
        <ele>550.16</ele>
      </trkpt>
      <trkpt lat="35.00491" lon="33.03877">
        <ele>549.35</ele>
      </trkpt>
      <trkpt lat="35.00498" lon="33.03879">
        <ele>549.55</ele>
      </trkpt>
      <trkpt lat="35.00512" lon="33.0388">
        <ele>546.84</ele>
      </trkpt>
      <trkpt lat="35.00517" lon="33.03879">
        <ele>545.06</ele>
      </trkpt>
      <trkpt lat="35.00522" lon="33.03877">
        <ele>542.83</ele>
      </trkpt>
      <trkpt lat="35.0053" lon="33.03874">
        <ele>540.27</ele>
      </trkpt>
      <trkpt lat="35.00536" lon="33.0387">
        <ele>539.05</ele>
      </trkpt>
      <trkpt lat="35.00541" lon="33.03868">
        <ele>538.65</ele>
      </trkpt>
      <trkpt lat="35.00552" lon="33.03866">
        <ele>538.9</ele>
      </trkpt>
      <trkpt lat="35.00564" lon="33.03864">
        <ele>537.97</ele>
      </trkpt>
      <trkpt lat="35.00581" lon="33.03861">
        <ele>535.13</ele>
      </trkpt>
      <trkpt lat="35.00585" lon="33.03861">
        <ele>535.45</ele>
      </trkpt>
      <trkpt lat="35.00596" lon="33.03859">
        <ele>537.94</ele>
      </trkpt>
      <trkpt lat="35.0061" lon="33.03859">
        <ele>541.85</ele>
      </trkpt>
      <trkpt lat="35.00615" lon="33.03861">
        <ele>543.1</ele>
      </trkpt>
      <trkpt lat="35.00624" lon="33.03867">
        <ele>547.0</ele>
      </trkpt>
      <trkpt lat="35.0063" lon="33.03871">
        <ele>549.23</ele>
      </trkpt>
      <trkpt lat="35.0064" lon="33.03877">
        <ele>552.0</ele>
      </trkpt>
      <trkpt lat="35.00653" lon="33.03885">
        <ele>555.67</ele>
      </trkpt>
      <trkpt lat="35.00671" lon="33.03894">
        <ele>559.83</ele>
      </trkpt>
      <trkpt lat="35.00678" lon="33.03896">
        <ele>561.7</ele>
      </trkpt>
      <trkpt lat="35.00688" lon="33.03896">
        <ele>563.14</ele>
      </trkpt>
      <trkpt lat="35.00696" lon="33.03893">
        <ele>563.29</ele>
      </trkpt>
      <trkpt lat="35.00703" lon="33.03887">
        <ele>562.39</ele>
      </trkpt>
      <trkpt lat="35.00709" lon="33.03882">
        <ele>560.94</ele>
      </trkpt>
      <trkpt lat="35.00712" lon="33.03878">
        <ele>559.08</ele>
      </trkpt>
      <trkpt lat="35.00713" lon="33.03876">
        <ele>557.99</ele>
      </trkpt>
      <trkpt lat="35.00715" lon="33.03872">
        <ele>555.71</ele>
      </trkpt>
      <trkpt lat="35.00716" lon="33.03866">
        <ele>551.84</ele>
      </trkpt>
      <trkpt lat="35.00725" lon="33.03837">
        <ele>537.9</ele>
      </trkpt>
      <trkpt lat="35.00728" lon="33.03832">
        <ele>536.67</ele>
      </trkpt>
      <trkpt lat="35.00732" lon="33.03825">
        <ele>535.68</ele>
      </trkpt>
      <trkpt lat="35.00737" lon="33.0382">
        <ele>535.17</ele>
      </trkpt>
      <trkpt lat="35.00755" lon="33.03812">
        <ele>534.75</ele>
      </trkpt>
      <trkpt lat="35.00761" lon="33.03812">
        <ele>535.34</ele>
      </trkpt>
      <trkpt lat="35.00766" lon="33.03811">
        <ele>535.36</ele>
      </trkpt>
      <trkpt lat="35.00771" lon="33.03811">
        <ele>535.86</ele>
      </trkpt>
      <trkpt lat="35.00778" lon="33.0381">
        <ele>536.07</ele>
      </trkpt>
      <trkpt lat="35.00786" lon="33.03809">
        <ele>535.17</ele>
      </trkpt>
      <trkpt lat="35.00797" lon="33.03807">
        <ele>533.84</ele>
      </trkpt>
      <trkpt lat="35.00804" lon="33.03807">
        <ele>533.54</ele>
      </trkpt>
      <trkpt lat="35.00808" lon="33.03807">
        <ele>533.79</ele>
      </trkpt>
      <trkpt lat="35.00812" lon="33.03809">
        <ele>534.87</ele>
      </trkpt>
      <trkpt lat="35.00818" lon="33.0381">
        <ele>535.8</ele>
      </trkpt>
      <trkpt lat="35.00825" lon="33.03813">
        <ele>537.09</ele>
      </trkpt>
      <trkpt lat="35.00833" lon="33.03816">
        <ele>538.11</ele>
      </trkpt>
      <trkpt lat="35.00836" lon="33.03816">
        <ele>538.54</ele>
      </trkpt>
      <trkpt lat="35.00842" lon="33.03818">
        <ele>539.81</ele>
      </trkpt>
      <trkpt lat="35.00845" lon="33.03818">
        <ele>540.31</ele>
      </trkpt>
      <trkpt lat="35.00851" lon="33.0382">
        <ele>541.82</ele>
      </trkpt>
      <trkpt lat="35.00853" lon="33.0382">
        <ele>542.18</ele>
      </trkpt>
      <trkpt lat="35.00855" lon="33.03821">
        <ele>542.83</ele>
      </trkpt>
      <trkpt lat="35.00856" lon="33.03821">
        <ele>543.02</ele>
      </trkpt>
      <trkpt lat="35.00858" lon="33.03822">
        <ele>543.71</ele>
      </trkpt>
      <trkpt lat="35.00863" lon="33.03824">
        <ele>545.0</ele>
      </trkpt>
      <trkpt lat="35.00873" lon="33.03829">
        <ele>546.66</ele>
      </trkpt>
      <trkpt lat="35.00886" lon="33.03835">
        <ele>548.61</ele>
      </trkpt>
      <trkpt lat="35.00894" lon="33.03841">
        <ele>549.74</ele>
      </trkpt>
      <trkpt lat="35.00899" lon="33.03845">
        <ele>550.07</ele>
      </trkpt>
      <trkpt lat="35.00906" lon="33.03851">
        <ele>550.5</ele>
      </trkpt>
      <trkpt lat="35.00915" lon="33.03859">
        <ele>550.8</ele>
      </trkpt>
      <trkpt lat="35.0092" lon="33.03862">
        <ele>550.31</ele>
      </trkpt>
      <trkpt lat="35.00926" lon="33.03865">
        <ele>549.57</ele>
      </trkpt>
      <trkpt lat="35.00929" lon="33.03865">
        <ele>548.75</ele>
      </trkpt>
      <trkpt lat="35.00931" lon="33.03863">
        <ele>547.52</ele>
      </trkpt>
      <trkpt lat="35.00927" lon="33.03858">
        <ele>547.13</ele>
      </trkpt>
      <trkpt lat="35.00925" lon="33.03855">
        <ele>546.84</ele>
      </trkpt>
      <trkpt lat="35.00924" lon="33.03854">
        <ele>546.84</ele>
      </trkpt>
      <trkpt lat="35.0092" lon="33.03849">
        <ele>546.55</ele>
      </trkpt>
      <trkpt lat="35.00917" lon="33.03847">
        <ele>546.84</ele>
      </trkpt>
      <trkpt lat="35.00914" lon="33.03844">
        <ele>546.63</ele>
      </trkpt>
      <trkpt lat="35.00912" lon="33.03841">
        <ele>546.14</ele>
      </trkpt>
      <trkpt lat="35.00909" lon="33.03839">
        <ele>546.12</ele>
      </trkpt>
      <trkpt lat="35.00905" lon="33.03835">
        <ele>545.63</ele>
      </trkpt>
      <trkpt lat="35.00899" lon="33.03829">
        <ele>544.82</ele>
      </trkpt>
      <trkpt lat="35.0089" lon="33.03823">
        <ele>544.79</ele>
      </trkpt>
      <trkpt lat="35.00885" lon="33.03819">
        <ele>543.8</ele>
      </trkpt>
      <trkpt lat="35.00881" lon="33.03816">
        <ele>542.83</ele>
      </trkpt>
      <trkpt lat="35.00879" lon="33.03812">
        <ele>541.58</ele>
      </trkpt>
      <trkpt lat="35.00876" lon="33.03808">
        <ele>540.28</ele>
      </trkpt>
      <trkpt lat="35.00875" lon="33.03805">
        <ele>539.43</ele>
      </trkpt>
      <trkpt lat="35.00876" lon="33.03803">
        <ele>539.21</ele>
      </trkpt>
      <trkpt lat="35.00878" lon="33.03802">
        <ele>539.15</ele>
      </trkpt>
      <trkpt lat="35.00891" lon="33.03805">
        <ele>539.39</ele>
      </trkpt>
      <trkpt lat="35.00892" lon="33.03805">
        <ele>539.13</ele>
      </trkpt>
      <trkpt lat="35.00893" lon="33.03805">
        <ele>538.88</ele>
      </trkpt>
      <trkpt lat="35.00895" lon="33.03805">
        <ele>538.38</ele>
      </trkpt>
      <trkpt lat="35.00897" lon="33.03805">
        <ele>537.87</ele>
      </trkpt>
      <trkpt lat="35.00899" lon="33.03805">
        <ele>537.36</ele>
      </trkpt>
      <trkpt lat="35.00904" lon="33.03806">
        <ele>536.34</ele>
      </trkpt>
      <trkpt lat="35.0091" lon="33.03808">
        <ele>535.52</ele>
      </trkpt>
      <trkpt lat="35.00917" lon="33.0381">
        <ele>534.43</ele>
      </trkpt>
      <trkpt lat="35.00925" lon="33.03812">
        <ele>531.31</ele>
      </trkpt>
      <trkpt lat="35.00937" lon="33.03813">
        <ele>526.07</ele>
      </trkpt>
      <trkpt lat="35.00942" lon="33.03815">
        <ele>524.89</ele>
      </trkpt>
      <trkpt lat="35.00949" lon="33.03816">
        <ele>522.42</ele>
      </trkpt>
      <trkpt lat="35.00959" lon="33.03816">
        <ele>518.1</ele>
      </trkpt>
      <trkpt lat="35.00964" lon="33.03814">
        <ele>515.12</ele>
      </trkpt>
      <trkpt lat="35.00969" lon="33.0381">
        <ele>511.63</ele>
      </trkpt>
      <trkpt lat="35.00971" lon="33.03807">
        <ele>509.88</ele>
      </trkpt>
      <trkpt lat="35.00973" lon="33.03803">
        <ele>508.55</ele>
      </trkpt>
      <trkpt lat="35.00973" lon="33.03802">
        <ele>508.37</ele>
      </trkpt>
      <trkpt lat="35.00974" lon="33.03798">
        <ele>507.67</ele>
      </trkpt>
      <trkpt lat="35.00974" lon="33.03795">
        <ele>507.15</ele>
      </trkpt>
      <trkpt lat="35.00975" lon="33.03792">
        <ele>506.66</ele>
      </trkpt>
      <trkpt lat="35.00976" lon="33.0379">
        <ele>506.35</ele>
      </trkpt>
      <trkpt lat="35.00977" lon="33.03788">
        <ele>506.06</ele>
      </trkpt>
      <trkpt lat="35.00979" lon="33.03786">
        <ele>505.82</ele>
      </trkpt>
      <trkpt lat="35.0098" lon="33.03785">
        <ele>505.71</ele>
      </trkpt>
      <trkpt lat="35.00982" lon="33.03784">
        <ele>505.67</ele>
      </trkpt>
      <trkpt lat="35.00983" lon="33.03783">
        <ele>505.57</ele>
      </trkpt>
      <trkpt lat="35.00986" lon="33.03778">
        <ele>505.02</ele>
      </trkpt>
      <trkpt lat="35.0099" lon="33.03774">
        <ele>505.19</ele>
      </trkpt>
      <trkpt lat="35.00991" lon="33.03773">
        <ele>505.24</ele>
      </trkpt>
      <trkpt lat="35.00994" lon="33.0377">
        <ele>505.35</ele>
      </trkpt>
      <trkpt lat="35.00996" lon="33.03766">
        <ele>505.35</ele>
      </trkpt>
      <trkpt lat="35.00997" lon="33.03763">
        <ele>505.31</ele>
      </trkpt>
      <trkpt lat="35.00996" lon="33.03757">
        <ele>505.07</ele>
      </trkpt>
      <trkpt lat="35.00993" lon="33.03753">
        <ele>504.83</ele>
      </trkpt>
      <trkpt lat="35.00993" lon="33.03753">
        <ele>504.83</ele>
      </trkpt>
      <trkpt lat="35.00989" lon="33.0375">
        <ele>504.6</ele>
      </trkpt>
      <trkpt lat="35.00989" lon="33.03746">
        <ele>505.07</ele>
      </trkpt>
      <trkpt lat="35.00992" lon="33.03744">
        <ele>505.45</ele>
      </trkpt>
      <trkpt lat="35.00995" lon="33.03743">
        <ele>505.74</ele>
      </trkpt>
      <trkpt lat="35.01003" lon="33.03741">
        <ele>506.3</ele>
      </trkpt>
      <trkpt lat="35.01006" lon="33.03741">
        <ele>506.3</ele>
      </trkpt>
      <trkpt lat="35.01013" lon="33.03743">
        <ele>506.12</ele>
      </trkpt>
      <trkpt lat="35.01016" lon="33.03743">
        <ele>506.15</ele>
      </trkpt>
      <trkpt lat="35.0102" lon="33.03745">
        <ele>506.05</ele>
      </trkpt>
      <trkpt lat="35.01024" lon="33.03747">
        <ele>506.02</ele>
      </trkpt>
      <trkpt lat="35.01027" lon="33.03748">
        <ele>506.05</ele>
      </trkpt>
      <trkpt lat="35.01029" lon="33.03749">
        <ele>505.82</ele>
      </trkpt>
      <trkpt lat="35.01035" lon="33.03751">
        <ele>504.71</ele>
      </trkpt>
      <trkpt lat="35.01037" lon="33.03752">
        <ele>504.41</ele>
      </trkpt>
      <trkpt lat="35.01044" lon="33.03749">
        <ele>503.16</ele>
      </trkpt>
      <trkpt lat="35.01045" lon="33.03747">
        <ele>503.14</ele>
      </trkpt>
      <trkpt lat="35.01047" lon="33.03745">
        <ele>502.97</ele>
      </trkpt>
      <trkpt lat="35.01047" lon="33.03744">
        <ele>503.05</ele>
      </trkpt>
      <trkpt lat="35.01048" lon="33.03738">
        <ele>503.42</ele>
      </trkpt>
      <trkpt lat="35.01048" lon="33.03737">
        <ele>503.51</ele>
      </trkpt>
      <trkpt lat="35.01051" lon="33.0373">
        <ele>503.74</ele>
      </trkpt>
      <trkpt lat="35.01053" lon="33.03726">
        <ele>503.89</ele>
      </trkpt>
      <trkpt lat="35.01062" lon="33.03723">
        <ele>502.78</ele>
      </trkpt>
      <trkpt lat="35.01066" lon="33.03722">
        <ele>502.21</ele>
      </trkpt>
      <trkpt lat="35.01068" lon="33.03721">
        <ele>502.24</ele>
      </trkpt>
      <trkpt lat="35.0107" lon="33.03721">
        <ele>501.89</ele>
      </trkpt>
      <trkpt lat="35.01073" lon="33.0372">
        <ele>501.76</ele>
      </trkpt>
      <trkpt lat="35.01076" lon="33.0372">
        <ele>501.24</ele>
      </trkpt>
      <trkpt lat="35.01078" lon="33.0372">
        <ele>500.89</ele>
      </trkpt>
      <trkpt lat="35.01079" lon="33.03719">
        <ele>501.14</ele>
      </trkpt>
      <trkpt lat="35.01086" lon="33.03718">
        <ele>500.7</ele>
      </trkpt>
      <trkpt lat="35.01091" lon="33.03717">
        <ele>500.88</ele>
      </trkpt>
      <trkpt lat="35.01094" lon="33.03717">
        <ele>500.73</ele>
      </trkpt>
      <trkpt lat="35.01098" lon="33.03716">
        <ele>500.92</ele>
      </trkpt>
      <trkpt lat="35.011" lon="33.03716">
        <ele>500.82</ele>
      </trkpt>
      <trkpt lat="35.01103" lon="33.03716">
        <ele>500.66</ele>
      </trkpt>
      <trkpt lat="35.01103" lon="33.03716">
        <ele>500.66</ele>
      </trkpt>
      <trkpt lat="35.01104" lon="33.03716">
        <ele>500.61</ele>
      </trkpt>
      <trkpt lat="35.01111" lon="33.03714">
        <ele>500.97</ele>
      </trkpt>
      <trkpt lat="35.01112" lon="33.03714">
        <ele>500.93</ele>
      </trkpt>
      <trkpt lat="35.01117" lon="33.03714">
        <ele>500.75</ele>
      </trkpt>
      <trkpt lat="35.01123" lon="33.03713">
        <ele>500.89</ele>
      </trkpt>
      <trkpt lat="35.01125" lon="33.03712">
        <ele>501.18</ele>
      </trkpt>
      <trkpt lat="35.01128" lon="33.03711">
        <ele>501.43</ele>
      </trkpt>
      <trkpt lat="35.01132" lon="33.03711">
        <ele>501.29</ele>
      </trkpt>
      <trkpt lat="35.01133" lon="33.03711">
        <ele>501.25</ele>
      </trkpt>
      <trkpt lat="35.01134" lon="33.0371">
        <ele>501.58</ele>
      </trkpt>
      <trkpt lat="35.01139" lon="33.0371">
        <ele>501.37</ele>
      </trkpt>
      <trkpt lat="35.01142" lon="33.03709">
        <ele>500.93</ele>
      </trkpt>
      <trkpt lat="35.0115" lon="33.03709">
        <ele>498.81</ele>
      </trkpt>
      <trkpt lat="35.01156" lon="33.03708">
        <ele>497.46</ele>
      </trkpt>
      <trkpt lat="35.01163" lon="33.03707">
        <ele>495.76</ele>
      </trkpt>
      <trkpt lat="35.01173" lon="33.03706">
        <ele>494.88</ele>
      </trkpt>
      <trkpt lat="35.01187" lon="33.03704">
        <ele>495.05</ele>
      </trkpt>
      <trkpt lat="35.01198" lon="33.03703">
        <ele>495.19</ele>
      </trkpt>
      <trkpt lat="35.01205" lon="33.03703">
        <ele>495.43</ele>
      </trkpt>
    </trkseg>
  </trk>
</gpx>
